id,Volcano Name,Country,Type,Last Known Eruption,Region,Latitude,Longitude,Elevation,Dominant Rock Type,Tectonic Setting
1,West Eifel Volcanic Field,Germany,Maar(s),8300 BCE,Western Europe,50.17,6.85,600.0,Foidite,Rift zone / Continental crust (>25 km)
2,Chaine des Puys,France,Lava dome(s),4040 BCE,Western Europe,45.78,2.97,1464.0,Basalt / Picro-Basalt,Rift zone / Continental crust (>25 km)
3,Calatrava Volcanic Field,Spain,Pyroclastic cone(s),3600 BCE,Western Europe,38.87,-4.02,1117.0,Basalt / Picro-Basalt,Intraplate / Continental crust (>25 km)
4,Vulsini,Italy,Caldera,104 BCE,Italy,42.6,11.93,800.0,Trachyte / Trachydacite,Subduction zone / Continental crust (>25 km)
5,Campi Flegrei,Italy,Caldera,1538 CE,Italy,40.83,14.14,458.0,Trachyte / Trachydacite,Subduction zone / Continental crust (>25 km)
6,Vesuvius,Italy,Stratovolcano,1944 CE,Italy,40.82,14.43,1281.0,Phono-tephrite /  Tephri-phonolite,Subduction zone / Continental crust (>25 km)
7,Ischia,Italy,Complex,1302 CE,Italy,40.73,13.9,789.0,Trachyte / Trachydacite,Subduction zone / Continental crust (>25 km)
8,Palinuro,Italy,Submarine,8040 BCE,Italy,39.48,14.83,-70.0,Phonolite,Subduction zone / Continental crust (>25 km)
9,Stromboli,Italy,Stratovolcano,2020 CE,Italy,38.79,15.21,924.0,Trachyandesite / Basaltic Trachyandesite,Subduction zone / Continental crust (>25 km)
10,Lipari,Italy,Stratovolcano(es),1230 CE,Italy,38.49,14.93,590.0,Rhyolite,Subduction zone / Continental crust (>25 km)
11,Vulcano,Italy,Stratovolcano(es),1890 CE,Italy,38.4,14.96,500.0,Trachybasalt / Tephrite Basanite,Subduction zone / Continental crust (>25 km)
12,Etna,Italy,Stratovolcano(es),2020 CE,Italy,37.75,15.0,3295.0,Trachybasalt / Tephrite Basanite,Subduction zone / Continental crust (>25 km)
13,Campi Flegrei del Mar di Sicilia,Italy,Submarine,1867 CE,Italy,37.1,12.7,-8.0,Trachybasalt / Tephrite Basanite,Rift zone / Continental crust (>25 km)
14,Pantelleria,Italy,Shield,1891 CE,Italy,36.77,12.02,836.0,Rhyolite,Rift zone / Continental crust (>25 km)
15,Methana,Greece,Lava dome(s),258 BCE,Greece,37.62,23.34,760.0,Andesite / Basaltic Andesite,Subduction zone / Continental crust (>25 km)
16,Milos,Greece,Stratovolcano(es),140 CE,Greece,36.7,24.44,751.0,Rhyolite,Subduction zone / Continental crust (>25 km)
17,Santorini,Greece,Shield(s),1950 CE,Greece,36.4,25.4,367.0,Dacite,Subduction zone / Continental crust (>25 km)
18,Nisyros,Greece,Stratovolcano,1888 CE,Greece,36.59,27.16,698.0,Dacite,Subduction zone / Continental crust (>25 km)
19,Acigol-Nevsehir,Turkey,Caldera,2080 BCE,Turkey,38.54,34.62,1683.0,Rhyolite,Intraplate / Continental crust (>25 km)
20,Erciyes Dagi,Turkey,Stratovolcano,6880 BCE,Turkey,38.53,35.45,3864.0,Dacite,Intraplate / Continental crust (>25 km)
21,Nemrut Dagi,Turkey,Stratovolcano,1650 CE,Turkey,38.65,42.23,2948.0,Rhyolite,Intraplate / Continental crust (>25 km)
22,Tenduruk Dagi,Turkey,Shield,1855 CE,Turkey,39.36,43.87,3514.0,Basalt / Picro-Basalt,Intraplate / Continental crust (>25 km)
23,Ararat,Turkey,Stratovolcano,1840 CE,Turkey,39.7,44.3,5165.0,Andesite / Basaltic Andesite,Intraplate / Continental crust (>25 km)
24,Elbrus,Russia,Stratovolcano,50 CE,Western Asia,43.35,42.44,5642.0,Dacite,Intraplate / Continental crust (>25 km)
25,Kazbek,Georgia,Stratovolcano,750 BCE,Western Asia,42.7,44.5,5050.0,Andesite / Basaltic Andesite,Intraplate / Continental crust (>25 km)
26,Ghegham Volcanic Ridge,Armenia,Volcanic field,1900 BCE,Western Asia,40.28,45.0,3597.0,Andesite / Basaltic Andesite,Intraplate / Continental crust (>25 km)
27,Vaiyots-Sar,Armenia,Pyroclastic cone(s),2000 BCE,Western Asia,39.8,45.5,2575.0,Andesite / Basaltic Andesite,Intraplate / Continental crust (>25 km)
28,Porak,Armenia-Azerbaijan,Stratovolcano,778 BCE,Western Asia,40.03,45.74,3029.0,Andesite / Basaltic Andesite,Intraplate / Continental crust (>25 km)
29,Tskhouk-Karckar,Armenia-Azerbaijan,Pyroclastic cone(s),3000 BCE,Western Asia,39.74,45.99,3139.0,Andesite / Basaltic Andesite,Intraplate / Continental crust (>25 km)
30,"Tair, Jebel at",Yemen,Stratovolcano,2008 CE,Africa (northeastern) and Red Sea,15.55,41.83,244.0,Trachybasalt / Tephrite Basanite,Rift zone / Oceanic crust (< 15 km)
31,Zubair Group,Yemen,Shield,2013 CE,Africa (northeastern) and Red Sea,15.05,42.18,191.0,Basalt / Picro-Basalt,Rift zone / Oceanic crust (< 15 km)
32,Dallol,Ethiopia,Explosion crater(s),2011 CE,Africa (northeastern) and Red Sea,14.24,40.3,-48.0,No Data (checked),Rift zone / Intermediate crust (15-25 km)
33,Alu-Dalafilla,Ethiopia,Fissure vent(s),2008 CE,Africa (northeastern) and Red Sea,13.79,40.55,578.0,Basalt / Picro-Basalt,Rift zone / Intermediate crust (15-25 km)
34,Erta Ale,Ethiopia,Shield,2020 CE,Africa (northeastern) and Red Sea,13.6,40.67,613.0,Basalt / Picro-Basalt,Rift zone / Intermediate crust (15-25 km)
35,Dubbi,Eritrea,Stratovolcano,1861 CE,Africa (northeastern) and Red Sea,13.58,41.81,1625.0,Basalt / Picro-Basalt,Rift zone / Intermediate crust (15-25 km)
36,Nabro,Eritrea,Stratovolcano,2012 CE,Africa (northeastern) and Red Sea,13.37,41.7,2218.0,Trachyte / Trachydacite,Rift zone / Intermediate crust (15-25 km)
37,Alayta,Ethiopia,Shield,1915 CE,Africa (northeastern) and Red Sea,12.89,40.57,1496.0,Basalt / Picro-Basalt,Rift zone / Intermediate crust (15-25 km)
38,Dabbahu,Ethiopia,Stratovolcano,2005 CE,Africa (northeastern) and Red Sea,12.6,40.48,1401.0,Basalt / Picro-Basalt,Rift zone / Intermediate crust (15-25 km)
39,Manda Hararo,Ethiopia,Shield(s),2009 CE,Africa (northeastern) and Red Sea,12.17,40.82,600.0,Basalt / Picro-Basalt,Rift zone / Intermediate crust (15-25 km)
40,Manda-Inakir,Ethiopia-Djibouti,Fissure vent(s),1928 CE,Africa (northeastern) and Red Sea,12.38,42.2,600.0,Basalt / Picro-Basalt,Rift zone / Intermediate crust (15-25 km)
41,Ardoukoba,Djibouti,Fissure vent(s),1978 CE,Africa (northeastern) and Red Sea,11.58,42.47,298.0,Basalt / Picro-Basalt,Rift zone / Intermediate crust (15-25 km)
42,Dama Ali,Ethiopia,Shield,1631 CE,Africa (northeastern) and Red Sea,11.28,41.63,1068.0,Basalt / Picro-Basalt,Rift zone / Intermediate crust (15-25 km)
43,Fentale,Ethiopia,Stratovolcano,1820 CE,Africa (northeastern) and Red Sea,8.98,39.93,2007.0,Rhyolite,Rift zone / Continental crust (>25 km)
44,Kone,Ethiopia,Caldera(s),1820 CE,Africa (northeastern) and Red Sea,8.79,39.7,1380.0,Rhyolite,Rift zone / Continental crust (>25 km)
45,Tullu Moje,Ethiopia,Pyroclastic cone,1900 CE,Africa (northeastern) and Red Sea,8.16,39.14,2343.0,Rhyolite,Rift zone / Continental crust (>25 km)
46,Alutu,Ethiopia,Stratovolcano,50 BCE,Africa (northeastern) and Red Sea,7.77,38.78,2335.0,Rhyolite,Rift zone / Continental crust (>25 km)
47,South Island,Kenya,Stratovolcano,1888 CE,Africa (eastern),2.63,36.6,800.0,Basalt / Picro-Basalt,Rift zone / Continental crust (>25 km)
48,"Barrier, The",Kenya,Shield,1921 CE,Africa (eastern),2.32,36.57,1032.0,Trachyte / Trachydacite,Rift zone / Continental crust (>25 km)
49,Namarunu,Kenya,Shield,6550 BCE,Africa (eastern),1.98,36.43,817.0,Basalt / Picro-Basalt,Rift zone / Continental crust (>25 km)
50,Emuruangogolak,Kenya,Shield,1910 CE,Africa (eastern),1.5,36.33,1285.0,Trachyte / Trachydacite,Rift zone / Continental crust (>25 km)
51,Silali,Kenya,Shield,5050 BCE,Africa (eastern),1.15,36.23,1528.0,Trachyte / Trachydacite,Rift zone / Continental crust (>25 km)
52,Paka,Kenya,Shield,7550 BCE,Africa (eastern),0.92,36.18,1697.0,Trachyte / Trachydacite,Rift zone / Continental crust (>25 km)
53,Menengai,Kenya,Shield,6050 BCE,Africa (eastern),-0.2,36.07,2278.0,Trachyte / Trachydacite,Rift zone / Continental crust (>25 km)
54,Olkaria,Kenya,Pyroclastic cone(s),1770 CE,Africa (eastern),-0.9,36.29,2434.0,Rhyolite,Rift zone / Continental crust (>25 km)
55,Longonot,Kenya,Stratovolcano,1863 CE,Africa (eastern),-0.91,36.45,2776.0,Trachyte / Trachydacite,Rift zone / Continental crust (>25 km)
56,"Lengai, Ol Doinyo",Tanzania,Stratovolcano,2020 CE,Africa (eastern),-2.76,35.91,2962.0,Foidite,Rift zone / Continental crust (>25 km)
57,Chyulu Hills,Kenya,Volcanic field,1855 CE,Africa (eastern),-2.68,37.88,2188.0,Trachybasalt / Tephrite Basanite,Rift zone / Continental crust (>25 km)
58,Meru,Tanzania,Stratovolcano,1910 CE,Africa (eastern),-3.25,36.75,4565.0,Phonolite,Rift zone / Continental crust (>25 km)
59,Igwisi Hills,Tanzania,Pyroclastic cone(s),10450 BCE,Africa (eastern),-4.89,31.93,1146.0,Foidite,Rift zone / Continental crust (>25 km)
60,Ngozi,Tanzania,Caldera,1450 CE,Africa (eastern),-8.99,33.55,2614.0,Trachyte / Trachydacite,Rift zone / Continental crust (>25 km)
61,Rungwe,Tanzania,Stratovolcano,1250 CE,Africa (eastern),-9.14,33.67,2953.0,Trachyte / Trachydacite,Rift zone / Continental crust (>25 km)
62,Kyejo,Tanzania,Stratovolcano,1800 CE,Africa (eastern),-9.23,33.79,2176.0,Trachyte / Trachydacite,Rift zone / Continental crust (>25 km)
63,Fort Portal,Uganda,Tuff cone(s),2120 BCE,Africa (central),0.7,30.25,1615.0,Foidite,Rift zone / Continental crust (>25 km)
64,Nyamuragira,DR Congo,Shield,2020 CE,Africa (central),-1.41,29.2,3058.0,Trachybasalt / Tephrite Basanite,Rift zone / Continental crust (>25 km)
65,Nyiragongo,DR Congo,Stratovolcano,2020 CE,Africa (central),-1.52,29.25,3470.0,Foidite,Rift zone / Continental crust (>25 km)
66,Karisimbi,DR Congo-Rwanda,Stratovolcano,8050 BCE,Africa (central),-1.51,29.45,4490.0,Trachybasalt / Tephrite Basanite,Rift zone / Continental crust (>25 km)
67,Visoke,DR Congo-Rwanda,Stratovolcano,1957 CE,Africa (central),-1.46,29.49,3696.0,Trachyandesite / Basaltic Trachyandesite,Rift zone / Continental crust (>25 km)
68,Santa Isabel,Equatorial Guinea,Shield,1923 CE,Africa (western),3.59,8.76,2999.0,Basalt / Picro-Basalt,Intraplate / Continental crust (>25 km)
69,Cameroon,Cameroon,Stratovolcano,2000 CE,Africa (western),4.2,9.17,4095.0,Trachybasalt / Tephrite Basanite,Intraplate / Continental crust (>25 km)
70,"Marra, Jebel",Sudan,Volcanic field,2000 BCE,Africa (northern),12.95,24.27,3042.0,Basalt / Picro-Basalt,Intraplate / Continental crust (>25 km)
71,Meidob Volcanic Field,Sudan,Pyroclastic cone(s),2950 BCE,Africa (northern),15.32,26.47,2000.0,Trachybasalt / Tephrite Basanite,Intraplate / Continental crust (>25 km)
72,Bayuda Volcanic Field,Sudan,Pyroclastic cone(s),850 CE,Africa (northern),18.33,32.75,670.0,Trachybasalt / Tephrite Basanite,Intraplate / Continental crust (>25 km)
73,Harrat Ash Shamah,Syria-Jordan-Saudi Arabia,Volcanic field,1850 CE,Middle East (western),32.33,37.58,1100.0,Basalt / Picro-Basalt,Intraplate / Continental crust (>25 km)
74,"Uwayrid, Harrat",Saudi Arabia,Volcanic field,640 CE,Middle East (southern),27.08,37.25,1920.0,Basalt / Picro-Basalt,Intraplate / Continental crust (>25 km)
75,"Lunayyir, Harrat",Saudi Arabia,Volcanic field,1000 CE,Middle East (southern),25.17,37.75,1370.0,Basalt / Picro-Basalt,Intraplate / Continental crust (>25 km)
76,"Khaybar, Harrat",Saudi Arabia,Volcanic field,650 CE,Middle East (southern),25.0,39.92,2093.0,Basalt / Picro-Basalt,Intraplate / Continental crust (>25 km)
77,"Rahat, Harrat",Saudi Arabia,Volcanic field,1256 CE,Middle East (southern),23.08,39.78,1744.0,Basalt / Picro-Basalt,Intraplate / Continental crust (>25 km)
78,"Yar, Jabal",Saudi Arabia,Volcanic field,1810 CE,Middle East (southern),17.05,42.83,305.0,Basalt / Picro-Basalt,Intraplate / Continental crust (>25 km)
79,"Arhab, Harra of",Yemen,Volcanic field,500 CE,Middle East (southern),15.63,44.08,3100.0,Trachybasalt / Tephrite Basanite,Intraplate / Continental crust (>25 km)
80,"Haylan, Jabal",Yemen,Volcanic field,1200 BCE,Middle East (southern),15.4,45.1,1550.0,Basalt / Picro-Basalt,Intraplate / Continental crust (>25 km)
81,"Dhamar, Harras of",Yemen,Volcanic field,1937 CE,Middle East (southern),14.57,44.67,3500.0,Basalt / Picro-Basalt,Intraplate / Continental crust (>25 km)
82,"Sawad, Harra Es-",Yemen,Volcanic field,1253 CE,Middle East (southern),13.58,46.12,1737.0,Trachybasalt / Tephrite Basanite,Intraplate / Continental crust (>25 km)
83,Damavand,Iran,Stratovolcano,5350 BCE,Middle East (western),35.95,52.11,5670.0,Trachyandesite / Basaltic Trachyandesite,Intraplate / Continental crust (>25 km)
84,Mayotte,France,Shield,2019 CE,Indian Ocean (western),-12.83,45.17,660.0,Basalt / Picro-Basalt,Intraplate / Oceanic crust (< 15 km)
85,Karthala,Comoros,Shield,2007 CE,Indian Ocean (western),-11.75,43.38,2361.0,Basalt / Picro-Basalt,Intraplate / Oceanic crust (< 15 km)
86,Itasy Volcanic Field,Madagascar,Pyroclastic cone(s),6050 BCE,Indian Ocean (western),-19.03,46.7,1800.0,Trachyte / Trachydacite,Intraplate / Continental crust (>25 km)
87,"Fournaise, Piton de la",France,Shield,2020 CE,Indian Ocean (western),-21.24,55.71,2632.0,Basalt / Picro-Basalt,Intraplate / Oceanic crust (< 15 km)
88,Boomerang Seamount,France,Submarine,1995 CE,Indian Ocean (southern),-37.72,77.83,-650.0,Basalt / Picro-Basalt,Rift zone / Oceanic crust (< 15 km)
89,St. Paul,France,Stratovolcano,1793 CE,Indian Ocean (southern),-38.72,77.53,268.0,Basalt / Picro-Basalt,Rift zone / Oceanic crust (< 15 km)
90,Heard,Australia,Stratovolcano,2020 CE,Indian Ocean (southern),-53.11,73.51,2745.0,Trachybasalt / Tephrite Basanite,Intraplate / Oceanic crust (< 15 km)
91,McDonald Islands,Australia,Complex,2005 CE,Indian Ocean (southern),-53.03,72.6,230.0,Phonolite,Intraplate / Oceanic crust (< 15 km)
92,Marion Island,South Africa,Shield(s),2004 CE,Indian Ocean (southern),-46.9,37.75,1230.0,Basalt / Picro-Basalt,Rift zone / Oceanic crust (< 15 km)
93,Kaikohe-Bay of Islands,New Zealand,Volcanic field,400 CE,New Zealand,-35.3,173.9,388.0,Trachybasalt / Tephrite Basanite,Subduction zone / Continental crust (>25 km)
94,Auckland Volcanic Field,New Zealand,Volcanic field,1350 CE,New Zealand,-36.9,174.87,260.0,Trachybasalt / Tephrite Basanite,Subduction zone / Continental crust (>25 km)
95,Mayor Island,New Zealand,Shield,5060 BCE,New Zealand,-37.28,176.25,355.0,Rhyolite,Subduction zone / Continental crust (>25 km)
96,Taranaki,New Zealand,Stratovolcano,1800 CE,New Zealand,-39.3,174.07,2518.0,Andesite / Basaltic Andesite,Subduction zone / Continental crust (>25 km)
97,Whakaari/White Island,New Zealand,Stratovolcano(es),2019 CE,New Zealand,-37.52,177.18,294.0,Andesite / Basaltic Andesite,Subduction zone / Continental crust (>25 km)
98,Okataina,New Zealand,Lava dome(s),1981 CE,New Zealand,-38.12,176.5,1111.0,Rhyolite,Subduction zone / Continental crust (>25 km)
99,Reporoa,New Zealand,Caldera,1180 CE,New Zealand,-38.42,176.33,592.0,Rhyolite,Subduction zone / Continental crust (>25 km)
100,Maroa,New Zealand,Caldera(s),180 CE,New Zealand,-38.42,176.08,897.0,Rhyolite,Subduction zone / Continental crust (>25 km)
101,Taupo,New Zealand,Caldera,260 CE,New Zealand,-38.82,176.0,760.0,Rhyolite,Subduction zone / Continental crust (>25 km)
102,Tongariro,New Zealand,Stratovolcano(es),2012 CE,New Zealand,-39.16,175.63,1978.0,Andesite / Basaltic Andesite,Subduction zone / Continental crust (>25 km)
103,Ruapehu,New Zealand,Stratovolcano,2007 CE,New Zealand,-39.28,175.57,2797.0,Andesite / Basaltic Andesite,Subduction zone / Continental crust (>25 km)
104,Rumble III,New Zealand,Submarine,2008 CE,New Zealand,-35.75,178.48,-220.0,Andesite / Basaltic Andesite,Subduction zone / Oceanic crust (< 15 km)
105,Healy,New Zealand,Submarine,1360 CE,New Zealand,-35.0,178.97,-980.0,Dacite,Subduction zone / Oceanic crust (< 15 km)
106,Macauley,New Zealand,Caldera,4360 BCE,Kermadec Islands,-30.21,-178.48,238.0,Basalt / Picro-Basalt,Subduction zone / Oceanic crust (< 15 km)
107,Raoul Island,New Zealand,Stratovolcano,2006 CE,Kermadec Islands,-29.27,-177.92,516.0,Andesite / Basaltic Andesite,Subduction zone / Oceanic crust (< 15 km)
108,Monowai,New Zealand,Submarine,2012 CE,Tonga Islands,-25.89,-177.19,-132.0,Basalt / Picro-Basalt,Subduction zone / Oceanic crust (< 15 km)
109,Unnamed,Tonga,Submarine,1932 CE,Tonga Islands,-21.34,-175.65,-68.0,No Data (checked),Subduction zone / Oceanic crust (< 15 km)
110,Unnamed,Tonga,Submarine,2017 CE,Tonga Islands,-20.85,-175.55,-296.0,No Data (checked),Subduction zone / Oceanic crust (< 15 km)
111,Hunga Tonga-Hunga Ha'apai,Tonga,Submarine,2015 CE,Tonga Islands,-20.54,-175.38,114.0,Andesite / Basaltic Andesite,Subduction zone / Oceanic crust (< 15 km)
112,Fonuafo'ou,Tonga,Submarine,1936 CE,Tonga Islands,-20.32,-175.42,-17.0,Andesite / Basaltic Andesite,Subduction zone / Oceanic crust (< 15 km)
113,Tofua,Tonga,Caldera,2014 CE,Tonga Islands,-19.75,-175.07,515.0,Andesite / Basaltic Andesite,Subduction zone / Oceanic crust (< 15 km)
114,Kao,Tonga,Stratovolcano,1847 CE,Tonga Islands,-19.67,-175.02,1009.0,Andesite / Basaltic Andesite,Subduction zone / Oceanic crust (< 15 km)
115,Lateiki,Tonga,Submarine,2019 CE,Tonga Islands,-19.18,-174.87,43.0,Dacite,Subduction zone / Oceanic crust (< 15 km)
116,Home Reef,Tonga,Submarine,2006 CE,Tonga Islands,-18.99,-174.78,-10.0,Dacite,Subduction zone / Oceanic crust (< 15 km)
117,Late,Tonga,Stratovolcano,1854 CE,Tonga Islands,-18.81,-174.65,540.0,Andesite / Basaltic Andesite,Subduction zone / Oceanic crust (< 15 km)
118,Unnamed,Tonga,Submarine,2001 CE,Tonga Islands,-18.33,-174.37,-40.0,Dacite,Subduction zone / Oceanic crust (< 15 km)
119,Fonualei,Tonga,Stratovolcano,1957 CE,Tonga Islands,-18.02,-174.32,188.0,Dacite,Subduction zone / Oceanic crust (< 15 km)
120,Curacoa,Tonga,Submarine,1979 CE,Tonga Islands,-15.62,-173.67,-33.0,Dacite,Subduction zone / Oceanic crust (< 15 km)
121,Niuafo'ou,Tonga,Shield,1985 CE,Tonga Islands,-15.6,-175.63,260.0,Basalt / Picro-Basalt,Subduction zone / Oceanic crust (< 15 km)
122,Tafu-Maka,Tonga,Submarine,2008 CE,Tonga Islands,-15.37,-174.23,-1400.0,Basalt / Picro-Basalt,Rift zone / Oceanic crust (< 15 km)
123,West Mata,Tonga,Submarine,2009 CE,Tonga Islands,-15.1,-173.75,-1174.0,Andesite / Basaltic Andesite,Subduction zone / Oceanic crust (< 15 km)
124,Vailulu'u,United States,Submarine,2003 CE,Samoan and Wallis Islands,-14.22,-169.06,-592.0,Basalt / Picro-Basalt,Subduction zone / Oceanic crust (< 15 km)
125,Ofu-Olosega,United States,Shield(s),1866 CE,Samoan and Wallis Islands,-14.18,-169.62,639.0,Basalt / Picro-Basalt,Subduction zone / Oceanic crust (< 15 km)
126,Tutuila,United States,Tuff cone(s),440 CE,Samoan and Wallis Islands,-14.3,-170.7,653.0,Basalt / Picro-Basalt,Subduction zone / Oceanic crust (< 15 km)
127,Savai'i,Samoa,Shield,1911 CE,Samoan and Wallis Islands,-13.61,-172.53,1858.0,Basalt / Picro-Basalt,Subduction zone / Oceanic crust (< 15 km)
128,Taveuni,Fiji,Shield,1550 CE,Fiji Islands,-16.82,-179.97,1241.0,Basalt / Picro-Basalt,Subduction zone / Crustal thickness unknown
129,Nabukelevu,Fiji,Lava dome(s),1660 CE,Fiji Islands,-19.12,177.98,805.0,Andesite / Basaltic Andesite,Subduction zone / Crustal thickness unknown
130,St. Andrew Strait,Papua New Guinea,Complex,1957 CE,Admiralty Islands,-2.38,147.35,270.0,Rhyolite,Subduction zone / Oceanic crust (< 15 km)
131,Central Bismarck Sea,Papua New Guinea,Submarine,1972 CE,Admiralty Islands,-3.03,147.78,-1300.0,No Data (checked),Rift zone / Continental crust (>25 km)
132,Kadovar,Papua New Guinea,Stratovolcano,2020 CE,Northeast of New Guinea,-3.61,144.59,365.0,Andesite / Basaltic Andesite,Subduction zone / Continental crust (>25 km)
133,Bam,Papua New Guinea,Stratovolcano,1960 CE,Northeast of New Guinea,-3.61,144.82,685.0,Andesite / Basaltic Andesite,Subduction zone / Continental crust (>25 km)
134,Manam,Papua New Guinea,Stratovolcano,2020 CE,Northeast of New Guinea,-4.08,145.04,1807.0,Basalt / Picro-Basalt,Subduction zone / Continental crust (>25 km)
135,Karkar,Papua New Guinea,Stratovolcano,2014 CE,Northeast of New Guinea,-4.65,145.96,1839.0,Andesite / Basaltic Andesite,Subduction zone / Continental crust (>25 km)
136,Long Island,Papua New Guinea,Complex,1993 CE,Northeast of New Guinea,-5.36,147.12,1280.0,Andesite / Basaltic Andesite,Subduction zone / Continental crust (>25 km)
137,Ritter Island,Papua New Guinea,Stratovolcano,2007 CE,Northeast of New Guinea,-5.52,148.12,75.0,Basalt / Picro-Basalt,Subduction zone / Continental crust (>25 km)
138,Langila,Papua New Guinea,Complex,2018 CE,New Britain,-5.53,148.42,1330.0,Basalt / Picro-Basalt,Subduction zone / Continental crust (>25 km)
139,Dakataua,Papua New Guinea,Caldera,1895 CE,New Britain,-5.09,150.09,408.0,Andesite / Basaltic Andesite,Subduction zone / Continental crust (>25 km)
140,Krummel-Garbuna-Welcker,Papua New Guinea,Stratovolcano(es),2008 CE,New Britain,-5.42,150.03,564.0,Andesite / Basaltic Andesite,Subduction zone / Continental crust (>25 km)
141,Witori,Papua New Guinea,Caldera,2012 CE,New Britain,-5.58,150.52,724.0,Dacite,Subduction zone / Continental crust (>25 km)
142,Hargy,Papua New Guinea,Stratovolcano,950 CE,New Britain,-5.33,151.1,1148.0,Dacite,Subduction zone / Continental crust (>25 km)
143,Bamus,Papua New Guinea,Stratovolcano,1886 CE,New Britain,-5.2,151.23,2248.0,Andesite / Basaltic Andesite,Subduction zone / Continental crust (>25 km)
144,Ulawun,Papua New Guinea,Stratovolcano,2019 CE,New Britain,-5.05,151.33,2334.0,Basalt / Picro-Basalt,Subduction zone / Continental crust (>25 km)
145,Lolobau,Papua New Guinea,Caldera,1912 CE,New Britain,-4.92,151.16,858.0,Basalt / Picro-Basalt,Subduction zone / Continental crust (>25 km)
146,Rabaul,Papua New Guinea,Pyroclastic shield,2014 CE,New Britain,-4.27,152.2,688.0,Dacite,Subduction zone / Continental crust (>25 km)
147,Tavui,Papua New Guinea,Caldera,4946 BCE,New Britain,-4.12,152.2,200.0,Rhyolite,Subduction zone / Continental crust (>25 km)
148,Lamington,Papua New Guinea,Stratovolcano,1956 CE,New Guinea and D'Entrecasteaux Islands,-8.95,148.15,1680.0,Andesite / Basaltic Andesite,Subduction zone / Continental crust (>25 km)
149,Victory,Papua New Guinea,Stratovolcano,1935 CE,New Guinea and D'Entrecasteaux Islands,-9.2,149.07,1925.0,Andesite / Basaltic Andesite,Subduction zone / Continental crust (>25 km)
150,Waiowa,Papua New Guinea,Pyroclastic cone,1944 CE,New Guinea and D'Entrecasteaux Islands,-9.57,149.08,640.0,Trachyandesite / Basaltic Trachyandesite,Subduction zone / Continental crust (>25 km)
151,Dawson Strait Group,Papua New Guinea,Volcanic field,1350 CE,New Guinea and D'Entrecasteaux Islands,-9.62,150.88,500.0,Rhyolite,Subduction zone / Continental crust (>25 km)
152,Ambitle,Papua New Guinea,Stratovolcano,350 BCE,New Ireland,-4.08,153.65,450.0,Phono-tephrite /  Tephri-phonolite,Subduction zone / Crustal thickness unknown
153,Billy Mitchell,Papua New Guinea,Pyroclastic shield,1580 CE,Bougainville and Solomon Islands,-6.09,155.23,1544.0,Andesite / Basaltic Andesite,Subduction zone / Crustal thickness unknown
154,Bagana,Papua New Guinea,Lava cone,2020 CE,Bougainville and Solomon Islands,-6.14,155.2,1855.0,Andesite / Basaltic Andesite,Subduction zone / Crustal thickness unknown
155,Loloru,Papua New Guinea,Pyroclastic shield,1050 BCE,Bougainville and Solomon Islands,-6.52,155.62,1887.0,Andesite / Basaltic Andesite,Subduction zone / Crustal thickness unknown
156,Simbo,Solomon Islands,Stratovolcano(es),1910 CE,Bougainville and Solomon Islands,-8.29,156.52,335.0,Andesite / Basaltic Andesite,Subduction zone / Crustal thickness unknown
157,Kavachi,Solomon Islands,Submarine,2007 CE,Bougainville and Solomon Islands,-8.99,157.98,-20.0,Andesite / Basaltic Andesite,Subduction zone / Crustal thickness unknown
158,Savo,Solomon Islands,Stratovolcano,1847 CE,Bougainville and Solomon Islands,-9.13,159.82,485.0,Andesite / Basaltic Andesite,Subduction zone / Crustal thickness unknown
159,Tinakula,Solomon Islands,Stratovolcano,2020 CE,Santa Cruz Islands,-10.39,165.8,796.0,Andesite / Basaltic Andesite,Subduction zone / Crustal thickness unknown
160,Suretamatai,Vanuatu,Complex,1966 CE,Vanuatu,-13.8,167.47,921.0,Andesite / Basaltic Andesite,Subduction zone / Intermediate crust (15-25 km)
161,Gaua,Vanuatu,Stratovolcano,2011 CE,Vanuatu,-14.27,167.5,797.0,Andesite / Basaltic Andesite,Subduction zone / Intermediate crust (15-25 km)
162,Ambae,Vanuatu,Shield,2018 CE,Vanuatu,-15.39,167.84,1496.0,Basalt / Picro-Basalt,Subduction zone / Intermediate crust (15-25 km)
163,Ambrym,Vanuatu,Pyroclastic shield,2018 CE,Vanuatu,-16.25,168.12,1334.0,Basalt / Picro-Basalt,Subduction zone / Intermediate crust (15-25 km)
164,Lopevi,Vanuatu,Stratovolcano,2007 CE,Vanuatu,-16.51,168.35,1413.0,Basalt / Picro-Basalt,Subduction zone / Intermediate crust (15-25 km)
165,Epi,Vanuatu,Stratovolcano(es),2004 CE,Vanuatu,-16.68,168.37,833.0,Basalt / Picro-Basalt,Subduction zone / Intermediate crust (15-25 km)
166,Kuwae,Vanuatu,Caldera,1974 CE,Vanuatu,-16.83,168.54,-2.0,Basalt / Picro-Basalt,Subduction zone / Intermediate crust (15-25 km)
167,Traitor's Head,Vanuatu,Stratovolcano,1881 CE,Vanuatu,-18.75,169.24,817.0,Basalt / Picro-Basalt,Subduction zone / Intermediate crust (15-25 km)
168,Yasur,Vanuatu,Stratovolcano,2020 CE,Vanuatu,-19.53,169.45,361.0,Andesite / Basaltic Andesite,Subduction zone / Intermediate crust (15-25 km)
169,Eastern Gemini Seamount,France,Submarine,1996 CE,Pacific Ocean (southwestern),-20.98,170.28,-80.0,Basalt / Picro-Basalt,Rift zone / Oceanic crust (< 15 km)
170,Matthew Island,France,Stratovolcano,1956 CE,Pacific Ocean (southwestern),-22.33,171.32,177.0,Andesite / Basaltic Andesite,Subduction zone / Crustal thickness unknown
171,Hunter Island,France,Stratovolcano,1903 CE,Pacific Ocean (southwestern),-22.4,172.05,297.0,Andesite / Basaltic Andesite,Subduction zone / Crustal thickness unknown
172,Newer Volcanics Province,Australia,Shield(s),2900 BCE,Australia,-37.77,142.5,1011.0,Trachybasalt / Tephrite Basanite,Intraplate / Continental crust (>25 km)
173,Barren Island,India,Stratovolcano,2020 CE,Andaman Islands,12.28,93.86,354.0,Basalt / Picro-Basalt,Subduction zone / Continental crust (>25 km)
174,Seulawah Agam,Indonesia,Stratovolcano,1839 CE,Sumatra,5.45,95.66,1810.0,Andesite / Basaltic Andesite,Subduction zone / Continental crust (>25 km)
175,Peuet Sague,Indonesia,Complex,2000 CE,Sumatra,4.9,96.29,2785.0,Andesite / Basaltic Andesite,Subduction zone / Continental crust (>25 km)
176,"Telong, Bur ni",Indonesia,Stratovolcano,1937 CE,Sumatra,4.77,96.82,2617.0,Andesite / Basaltic Andesite,Subduction zone / Continental crust (>25 km)
177,Singkut,Indonesia,Caldera(s),1881 CE,Sumatra,3.25,98.5,2181.0,Andesite / Basaltic Andesite,Subduction zone / Continental crust (>25 km)
178,Sinabung,Indonesia,Stratovolcano,2019 CE,Sumatra,3.17,98.39,2460.0,Andesite / Basaltic Andesite,Subduction zone / Continental crust (>25 km)
179,Sorikmarapi,Indonesia,Stratovolcano,1986 CE,Sumatra,0.69,99.54,2145.0,Andesite / Basaltic Andesite,Subduction zone / Continental crust (>25 km)
180,Marapi,Indonesia,Complex,2018 CE,Sumatra,-0.38,100.47,2885.0,Andesite / Basaltic Andesite,Subduction zone / Continental crust (>25 km)
181,Tandikat-Singgalang,Indonesia,Stratovolcano(es),1924 CE,Sumatra,-0.39,100.33,2854.0,Andesite / Basaltic Andesite,Subduction zone / Continental crust (>25 km)
182,Talang,Indonesia,Stratovolcano,2007 CE,Sumatra,-0.98,100.68,2575.0,Andesite / Basaltic Andesite,Subduction zone / Continental crust (>25 km)
183,Kerinci,Indonesia,Stratovolcano,2020 CE,Sumatra,-1.7,101.26,3800.0,Andesite / Basaltic Andesite,Subduction zone / Continental crust (>25 km)
184,Sumbing,Indonesia,Stratovolcano,1921 CE,Sumatra,-2.41,101.73,2507.0,Andesite / Basaltic Andesite,Subduction zone / Continental crust (>25 km)
185,Kaba,Indonesia,Stratovolcano,2000 CE,Sumatra,-3.52,102.62,1940.0,Andesite / Basaltic Andesite,Subduction zone / Continental crust (>25 km)
186,Dempo,Indonesia,Stratovolcano(es),2017 CE,Sumatra,-4.02,103.12,3142.0,Andesite / Basaltic Andesite,Subduction zone / Continental crust (>25 km)
187,Suoh,Indonesia,Caldera(s),1933 CE,Sumatra,-5.25,104.27,1000.0,No Data (checked),Subduction zone / Continental crust (>25 km)
188,Krakatau,Indonesia,Caldera,2020 CE,Krakatau,-6.1,105.42,155.0,Andesite / Basaltic Andesite,Subduction zone / Continental crust (>25 km)
189,Perbakti-Gagak,Indonesia,Stratovolcano(es),1939 CE,Java,-6.75,106.7,1699.0,Andesite / Basaltic Andesite,Subduction zone / Continental crust (>25 km)
190,Salak,Indonesia,Stratovolcano,1938 CE,Java,-6.72,106.73,2211.0,Andesite / Basaltic Andesite,Subduction zone / Continental crust (>25 km)
191,Gede-Pangrango,Indonesia,Stratovolcano(es),1957 CE,Java,-6.77,106.97,3008.0,Andesite / Basaltic Andesite,Subduction zone / Continental crust (>25 km)
192,Tangkuban Parahu,Indonesia,Stratovolcano,2019 CE,Java,-6.77,107.6,2084.0,Andesite / Basaltic Andesite,Subduction zone / Continental crust (>25 km)
193,Papandayan,Indonesia,Stratovolcano(es),2002 CE,Java,-7.32,107.73,2665.0,Andesite / Basaltic Andesite,Subduction zone / Continental crust (>25 km)
194,Guntur,Indonesia,Complex,1847 CE,Java,-7.14,107.84,2249.0,Andesite / Basaltic Andesite,Subduction zone / Continental crust (>25 km)
195,Galunggung,Indonesia,Stratovolcano,1984 CE,Java,-7.25,108.06,2168.0,Basalt / Picro-Basalt,Subduction zone / Continental crust (>25 km)
196,Cereme,Indonesia,Stratovolcano,1951 CE,Java,-6.9,108.41,3039.0,Andesite / Basaltic Andesite,Subduction zone / Continental crust (>25 km)
197,Slamet,Indonesia,Stratovolcano,2014 CE,Java,-7.24,109.21,3428.0,Basalt / Picro-Basalt,Subduction zone / Continental crust (>25 km)
198,Dieng Volcanic Complex,Indonesia,Complex,2018 CE,Java,-7.2,109.88,2565.0,Andesite / Basaltic Andesite,Subduction zone / Continental crust (>25 km)
199,Sundoro,Indonesia,Stratovolcano,1971 CE,Java,-7.3,109.99,3136.0,Andesite / Basaltic Andesite,Subduction zone / Continental crust (>25 km)
200,Sumbing,Indonesia,Stratovolcano,1730 CE,Java,-7.38,110.07,3371.0,Andesite / Basaltic Andesite,Subduction zone / Continental crust (>25 km)
201,Merbabu,Indonesia,Stratovolcano,1797 CE,Java,-7.45,110.44,3118.0,Basalt / Picro-Basalt,Subduction zone / Continental crust (>25 km)
202,Merapi,Indonesia,Stratovolcano,2020 CE,Java,-7.54,110.45,2910.0,Andesite / Basaltic Andesite,Subduction zone / Continental crust (>25 km)
203,Muria,Indonesia,Stratovolcano,160 BCE,Java,-6.62,110.88,1625.0,Trachybasalt / Tephrite Basanite,Subduction zone / Continental crust (>25 km)
204,Lawu,Indonesia,Stratovolcano,1885 CE,Java,-7.63,111.19,3265.0,Andesite / Basaltic Andesite,Subduction zone / Continental crust (>25 km)
205,Kelut,Indonesia,Stratovolcano,2014 CE,Java,-7.93,112.31,1731.0,Andesite / Basaltic Andesite,Subduction zone / Continental crust (>25 km)
206,Arjuno-Welirang,Indonesia,Stratovolcano,1952 CE,Java,-7.73,112.58,3339.0,Andesite / Basaltic Andesite,Subduction zone / Continental crust (>25 km)
207,Semeru,Indonesia,Stratovolcano,2020 CE,Java,-8.11,112.92,3657.0,Andesite / Basaltic Andesite,Subduction zone / Continental crust (>25 km)
208,Tengger Caldera,Indonesia,Stratovolcano(es),2019 CE,Java,-7.94,112.95,2329.0,Trachyandesite / Basaltic Trachyandesite,Subduction zone / Continental crust (>25 km)
209,Lamongan,Indonesia,Stratovolcano,1898 CE,Java,-7.98,113.34,1641.0,Basalt / Picro-Basalt,Subduction zone / Continental crust (>25 km)
210,Raung,Indonesia,Stratovolcano,2015 CE,Java,-8.12,114.06,3260.0,Andesite / Basaltic Andesite,Subduction zone / Continental crust (>25 km)
211,Ijen,Indonesia,Stratovolcano(es),1999 CE,Java,-8.06,114.24,2769.0,Andesite / Basaltic Andesite,Subduction zone / Continental crust (>25 km)
212,Batur,Indonesia,Caldera,2000 CE,Lesser Sunda Islands,-8.24,115.38,1717.0,Andesite / Basaltic Andesite,Subduction zone / Continental crust (>25 km)
213,Agung,Indonesia,Stratovolcano,2019 CE,Lesser Sunda Islands,-8.34,115.51,2997.0,Andesite / Basaltic Andesite,Subduction zone / Continental crust (>25 km)
214,Rinjani,Indonesia,Stratovolcano,2016 CE,Lesser Sunda Islands,-8.42,116.47,3726.0,Andesite / Basaltic Andesite,Subduction zone / Continental crust (>25 km)
215,Tambora,Indonesia,Stratovolcano,1967 CE,Lesser Sunda Islands,-8.25,118.0,2850.0,Trachybasalt / Tephrite Basanite,Subduction zone / Continental crust (>25 km)
216,Sangeang Api,Indonesia,Complex,2020 CE,Lesser Sunda Islands,-8.2,119.07,1912.0,Trachybasalt / Tephrite Basanite,Subduction zone / Continental crust (>25 km)
217,Ranakah,Indonesia,Lava dome(s),1991 CE,Lesser Sunda Islands,-8.62,120.52,2350.0,Andesite / Basaltic Andesite,Subduction zone / Continental crust (>25 km)
218,Inierie,Indonesia,Stratovolcano,8050 BCE,Lesser Sunda Islands,-8.88,120.95,2245.0,Andesite / Basaltic Andesite,Subduction zone / Crustal thickness unknown
219,Inielika,Indonesia,Complex,2001 CE,Lesser Sunda Islands,-8.73,120.98,1559.0,Andesite / Basaltic Andesite,Subduction zone / Crustal thickness unknown
220,Ebulobo,Indonesia,Stratovolcano,1969 CE,Lesser Sunda Islands,-8.82,121.19,2096.0,Andesite / Basaltic Andesite,Subduction zone / Crustal thickness unknown
221,Iya,Indonesia,Stratovolcano,1969 CE,Lesser Sunda Islands,-8.89,121.64,618.0,Basalt / Picro-Basalt,Subduction zone / Crustal thickness unknown
222,Kelimutu,Indonesia,Complex,1968 CE,Lesser Sunda Islands,-8.77,121.82,1639.0,Andesite / Basaltic Andesite,Subduction zone / Crustal thickness unknown
223,Paluweh,Indonesia,Stratovolcano,2013 CE,Lesser Sunda Islands,-8.32,121.71,875.0,Andesite / Basaltic Andesite,Subduction zone / Crustal thickness unknown
224,Egon,Indonesia,Stratovolcano,2008 CE,Lesser Sunda Islands,-8.68,122.46,1661.0,Andesite / Basaltic Andesite,Subduction zone / Crustal thickness unknown
225,Lewotobi,Indonesia,Stratovolcano(es),2003 CE,Lesser Sunda Islands,-8.54,122.78,1703.0,Andesite / Basaltic Andesite,Subduction zone / Crustal thickness unknown
226,Leroboleng,Indonesia,Complex,2003 CE,Lesser Sunda Islands,-8.37,122.83,1095.0,Andesite / Basaltic Andesite,Subduction zone / Crustal thickness unknown
227,Iliboleng,Indonesia,Stratovolcano,1993 CE,Lesser Sunda Islands,-8.34,123.26,1659.0,Basalt / Picro-Basalt,Subduction zone / Crustal thickness unknown
228,Lewotolo,Indonesia,Stratovolcano,2012 CE,Lesser Sunda Islands,-8.27,123.51,1423.0,Andesite / Basaltic Andesite,Subduction zone / Crustal thickness unknown
229,Iliwerung,Indonesia,Complex,2013 CE,Lesser Sunda Islands,-8.53,123.57,1018.0,Basalt / Picro-Basalt,Subduction zone / Crustal thickness unknown
230,"Tara, Batu",Indonesia,Stratovolcano,2015 CE,Lesser Sunda Islands,-7.79,123.59,633.0,Trachybasalt / Tephrite Basanite,Subduction zone / Oceanic crust (< 15 km)
231,Sirung,Indonesia,Complex,2015 CE,Lesser Sunda Islands,-8.51,124.13,862.0,Andesite / Basaltic Andesite,Subduction zone / Crustal thickness unknown
232,Gunungapi Wetar,Indonesia,Stratovolcano,1699 CE,Banda Sea,-6.64,126.65,282.0,Andesite / Basaltic Andesite,Subduction zone / Oceanic crust (< 15 km)
233,Wurlali,Indonesia,Stratovolcano,1892 CE,Banda Sea,-7.13,128.68,868.0,Andesite / Basaltic Andesite,Subduction zone / Oceanic crust (< 15 km)
234,Teon,Indonesia,Stratovolcano,1904 CE,Banda Sea,-6.98,129.14,728.0,Andesite / Basaltic Andesite,Subduction zone / Oceanic crust (< 15 km)
235,Nila,Indonesia,Stratovolcano,1968 CE,Banda Sea,-6.73,129.5,781.0,Andesite / Basaltic Andesite,Subduction zone / Oceanic crust (< 15 km)
236,Serua,Indonesia,Stratovolcano,1921 CE,Banda Sea,-6.31,130.02,608.0,Andesite / Basaltic Andesite,Subduction zone / Oceanic crust (< 15 km)
237,Banda Api,Indonesia,Caldera,1988 CE,Banda Sea,-4.52,129.88,596.0,Dacite,Subduction zone / Oceanic crust (< 15 km)
238,Colo,Indonesia,Stratovolcano,1983 CE,Sulawesi,-0.16,121.6,404.0,Trachyandesite / Basaltic Trachyandesite,Subduction zone / Continental crust (>25 km)
239,Ambang,Indonesia,Complex,2005 CE,Sulawesi,0.75,124.42,1795.0,Andesite / Basaltic Andesite,Subduction zone / Continental crust (>25 km)
240,Soputan,Indonesia,Stratovolcano,2020 CE,Sulawesi,1.11,124.74,1785.0,Andesite / Basaltic Andesite,Subduction zone / Continental crust (>25 km)
241,Lokon-Empung,Indonesia,Stratovolcano(es),2015 CE,Sulawesi,1.36,124.79,1580.0,Basalt / Picro-Basalt,Subduction zone / Continental crust (>25 km)
242,Mahawu,Indonesia,Stratovolcano,1977 CE,Sulawesi,1.35,124.87,1299.0,Andesite / Basaltic Andesite,Subduction zone / Continental crust (>25 km)
243,Tangkoko-Duasudara,Indonesia,Stratovolcano,1880 CE,Sulawesi,1.52,125.19,1334.0,Andesite / Basaltic Andesite,Subduction zone / Continental crust (>25 km)
244,Ruang,Indonesia,Stratovolcano,2002 CE,Sangihe Islands,2.3,125.37,725.0,Andesite / Basaltic Andesite,Subduction zone / Oceanic crust (< 15 km)
245,Karangetang,Indonesia,Stratovolcano,2020 CE,Sangihe Islands,2.78,125.41,1797.0,Andesite / Basaltic Andesite,Subduction zone / Oceanic crust (< 15 km)
246,Banua Wuhu,Indonesia,Submarine,1919 CE,Sangihe Islands,3.14,125.49,-5.0,Andesite / Basaltic Andesite,Subduction zone / Oceanic crust (< 15 km)
247,Awu,Indonesia,Stratovolcano,2004 CE,Sangihe Islands,3.69,125.45,1318.0,Andesite / Basaltic Andesite,Subduction zone / Oceanic crust (< 15 km)
248,Dukono,Indonesia,Complex,2020 CE,Halmahera,1.69,127.89,1229.0,Andesite / Basaltic Andesite,Subduction zone / Oceanic crust (< 15 km)
249,Ibu,Indonesia,Stratovolcano,2020 CE,Halmahera,1.49,127.63,1325.0,Andesite / Basaltic Andesite,Subduction zone / Oceanic crust (< 15 km)
250,Gamkonora,Indonesia,Stratovolcano,2007 CE,Halmahera,1.38,127.53,1635.0,Andesite / Basaltic Andesite,Subduction zone / Oceanic crust (< 15 km)
251,Gamalama,Indonesia,Stratovolcano(es),2018 CE,Halmahera,0.8,127.33,1715.0,Andesite / Basaltic Andesite,Subduction zone / Oceanic crust (< 15 km)
252,Makian,Indonesia,Stratovolcano,1988 CE,Halmahera,0.32,127.4,1357.0,Andesite / Basaltic Andesite,Subduction zone / Oceanic crust (< 15 km)
253,Parker,Philippines,Stratovolcano,1641 CE,Mindanao,6.11,124.89,1824.0,Andesite / Basaltic Andesite,Subduction zone / Continental crust (>25 km)
254,Matutum,Philippines,Stratovolcano,1290 CE,Mindanao,6.37,125.07,2286.0,Andesite / Basaltic Andesite,Subduction zone / Continental crust (>25 km)
255,Leonard Range,Philippines,Stratovolcano,120 CE,Mindanao,7.38,126.05,1080.0,Andesite / Basaltic Andesite,Subduction zone / Continental crust (>25 km)
256,Makaturing,Philippines,Stratovolcano,1882 CE,Mindanao,7.64,124.32,1818.0,Basalt / Picro-Basalt,Subduction zone / Continental crust (>25 km)
257,Ragang,Philippines,Stratovolcano,1916 CE,Mindanao,7.69,124.51,2790.0,Basalt / Picro-Basalt,Subduction zone / Continental crust (>25 km)
258,Camiguin,Philippines,Stratovolcano(es),1953 CE,Mindanao,9.2,124.67,1552.0,Andesite / Basaltic Andesite,Subduction zone / Continental crust (>25 km)
259,Kanlaon,Philippines,Stratovolcano,2017 CE,Central Philippines,10.41,123.13,2435.0,Andesite / Basaltic Andesite,Subduction zone / Continental crust (>25 km)
260,CabalÃ­an,Philippines,Stratovolcano,1820 CE,Central Philippines,10.29,125.22,912.0,Andesite / Basaltic Andesite,Subduction zone / Continental crust (>25 km)
261,Biliran,Philippines,Compound,1939 CE,Central Philippines,11.52,124.54,1301.0,Andesite / Basaltic Andesite,Subduction zone / Continental crust (>25 km)
262,Bulusan,Philippines,Stratovolcano(es),2017 CE,Luzon,12.77,124.06,1535.0,Andesite / Basaltic Andesite,Subduction zone / Continental crust (>25 km)
263,Mayon,Philippines,Stratovolcano,2019 CE,Luzon,13.26,123.69,2462.0,Andesite / Basaltic Andesite,Subduction zone / Continental crust (>25 km)
264,Isarog,Philippines,Stratovolcano,3500 BCE,Luzon,13.66,123.38,1966.0,Andesite / Basaltic Andesite,Subduction zone / Continental crust (>25 km)
265,San Pablo Volcanic Field,Philippines,Stratovolcano,1350 CE,Luzon,14.12,121.3,1090.0,Trachyandesite / Basaltic Trachyandesite,Subduction zone / Continental crust (>25 km)
266,Taal,Philippines,Caldera,2020 CE,Luzon,14.0,120.99,311.0,Andesite / Basaltic Andesite,Subduction zone / Continental crust (>25 km)
267,Mariveles,Philippines,Stratovolcano,2050 BCE,Luzon,14.53,120.48,1388.0,Andesite / Basaltic Andesite,Subduction zone / Continental crust (>25 km)
268,Pinatubo,Philippines,Stratovolcano,1993 CE,Luzon,15.13,120.35,1486.0,Dacite,Subduction zone / Continental crust (>25 km)
269,Cagua,Philippines,Stratovolcano,1860 CE,Luzon,18.22,122.12,1133.0,Andesite / Basaltic Andesite,Subduction zone / Continental crust (>25 km)
270,Camiguin de Babuyanes,Philippines,Stratovolcano,1857 CE,North of Luzon,18.83,121.86,712.0,Andesite / Basaltic Andesite,Subduction zone / Crustal thickness unknown
271,Didicas,Philippines,Compound,1978 CE,North of Luzon,19.08,122.2,228.0,Andesite / Basaltic Andesite,Subduction zone / Crustal thickness unknown
272,Babuyan Claro,Philippines,Stratovolcano(es),1924 CE,North of Luzon,19.52,121.94,1080.0,Andesite / Basaltic Andesite,Subduction zone / Crustal thickness unknown
273,Unnamed,Philippines,Submarine,1854 CE,North of Luzon,20.33,121.75,-24.0,No Data (checked),Subduction zone / Crustal thickness unknown
274,Iraya,Philippines,Stratovolcano,1454 CE,North of Luzon,20.47,122.01,1009.0,Andesite / Basaltic Andesite,Subduction zone / Crustal thickness unknown
275,Hainan Volcanic Field,China,Pyroclastic cone(s),1933 CE,Southeast Asia,19.91,110.23,196.0,Basalt / Picro-Basalt,Intraplate / Continental crust (>25 km)
276,"Cendres, Ile des",Vietnam,Submarine,1923 CE,Southeast Asia,10.16,109.01,-20.0,Basalt / Picro-Basalt,Intraplate / Continental crust (>25 km)
277,Popa,Burma (Myanmar),Stratovolcano,442 BCE,Southeast Asia,20.92,95.25,1518.0,Basalt / Picro-Basalt,Intraplate / Continental crust (>25 km)
278,Tengchong,China,Pyroclastic cone(s),5750 BCE,Southeast Asia,25.23,98.5,2865.0,Basalt / Picro-Basalt,Intraplate / Continental crust (>25 km)
279,Unnamed,Taiwan,Submarine,1853 CE,Taiwan,24.13,121.93,-1640.0,No Data (checked),Subduction zone / Continental crust (>25 km)
280,Kueishantao,Taiwan,Stratovolcano,1785 CE,Taiwan,24.84,121.95,361.0,Andesite / Basaltic Andesite,Subduction zone / Continental crust (>25 km)
281,Tatun Volcanic Group,Taiwan,Lava dome(s),648 CE,Taiwan,25.18,121.55,1120.0,Andesite / Basaltic Andesite,Subduction zone / Continental crust (>25 km)
282,Submarine Volcano NNE of Iriomotejima,Japan,Submarine,1924 CE,Ryukyu Islands and Kyushu,24.57,123.93,-200.0,Rhyolite,Subduction zone / Oceanic crust (< 15 km)
283,Io-Torishima,Japan,Complex,1968 CE,Ryukyu Islands and Kyushu,27.88,128.22,212.0,Andesite / Basaltic Andesite,Subduction zone / Oceanic crust (< 15 km)
284,Yokoate-jima,Japan,Stratovolcano(es),1835 CE,Ryukyu Islands and Kyushu,28.8,129.0,495.0,Andesite / Basaltic Andesite,Subduction zone / Oceanic crust (< 15 km)
285,Suwanosejima,Japan,Stratovolcano(es),2020 CE,Ryukyu Islands and Kyushu,29.64,129.71,796.0,Andesite / Basaltic Andesite,Subduction zone / Oceanic crust (< 15 km)
286,Nakanoshima,Japan,Stratovolcano(es),1914 CE,Ryukyu Islands and Kyushu,29.86,129.86,979.0,Andesite / Basaltic Andesite,Subduction zone / Oceanic crust (< 15 km)
287,Kuchinoshima,Japan,Stratovolcano(es),1190 CE,Ryukyu Islands and Kyushu,29.97,129.93,628.0,Andesite / Basaltic Andesite,Subduction zone / Oceanic crust (< 15 km)
288,Kuchinoerabujima,Japan,Stratovolcano(es),2020 CE,Ryukyu Islands and Kyushu,30.44,130.22,657.0,Andesite / Basaltic Andesite,Subduction zone / Oceanic crust (< 15 km)
289,Kikai,Japan,Caldera,2020 CE,Ryukyu Islands and Kyushu,30.79,130.31,704.0,Rhyolite,Subduction zone / Oceanic crust (< 15 km)
290,Ata,Japan,Caldera(s),885 CE,Ryukyu Islands and Kyushu,31.22,130.57,924.0,Andesite / Basaltic Andesite,Subduction zone / Continental crust (>25 km)
291,Aira,Japan,Caldera,2020 CE,Ryukyu Islands and Kyushu,31.59,130.66,1117.0,Andesite / Basaltic Andesite,Subduction zone / Continental crust (>25 km)
292,Yonemaru-Sumiyoshiike,Japan,Maar(s),6200 BCE,Ryukyu Islands and Kyushu,31.77,130.59,40.0,Basalt / Picro-Basalt,Subduction zone / Continental crust (>25 km)
293,Kirishimayama,Japan,Shield,2018 CE,Ryukyu Islands and Kyushu,31.93,130.86,1700.0,Andesite / Basaltic Andesite,Subduction zone / Continental crust (>25 km)
294,Fukue,Japan,Shield(s),400 BCE,Ryukyu Islands and Kyushu,32.66,128.85,315.0,Basalt / Picro-Basalt,Subduction zone / Continental crust (>25 km)
295,Unzendake,Japan,Complex,1996 CE,Ryukyu Islands and Kyushu,32.76,130.3,1483.0,Andesite / Basaltic Andesite,Subduction zone / Continental crust (>25 km)
296,Asosan,Japan,Caldera,2020 CE,Ryukyu Islands and Kyushu,32.88,131.1,1592.0,Andesite / Basaltic Andesite,Subduction zone / Continental crust (>25 km)
297,Kujusan,Japan,Stratovolcano(es),1996 CE,Ryukyu Islands and Kyushu,33.09,131.25,1791.0,Andesite / Basaltic Andesite,Subduction zone / Continental crust (>25 km)
298,Yufu-Tsurumi,Japan,Lava dome(s),867 CE,Ryukyu Islands and Kyushu,33.28,131.39,1584.0,Andesite / Basaltic Andesite,Subduction zone / Continental crust (>25 km)
299,Abu,Japan,Shield(s),6850 BCE,Honshu,34.5,131.6,641.0,Andesite / Basaltic Andesite,Subduction zone / Continental crust (>25 km)
300,Sanbesan,Japan,Stratovolcano,650 CE,Honshu,35.14,132.62,1126.0,Dacite,Subduction zone / Continental crust (>25 km)
301,Izu-Tobu,Japan,Pyroclastic cone(s),1989 CE,Honshu,34.9,139.1,1406.0,Basalt / Picro-Basalt,Subduction zone / Continental crust (>25 km)
302,Hakoneyama,Japan,Complex,2015 CE,Honshu,35.23,139.02,1438.0,Andesite / Basaltic Andesite,Subduction zone / Continental crust (>25 km)
303,Fujisan,Japan,Stratovolcano,1708 CE,Honshu,35.36,138.73,3776.0,Basalt / Picro-Basalt,Subduction zone / Continental crust (>25 km)
304,Yokodake,Japan,Stratovolcano(es),1200 CE,Honshu,36.09,138.32,2480.0,Andesite / Basaltic Andesite,Subduction zone / Continental crust (>25 km)
305,Ontakesan,Japan,Complex,2014 CE,Honshu,35.89,137.48,3067.0,Andesite / Basaltic Andesite,Subduction zone / Continental crust (>25 km)
306,Hakusan,Japan,Stratovolcano,1659 CE,Honshu,36.16,136.77,2702.0,Andesite / Basaltic Andesite,Subduction zone / Continental crust (>25 km)
307,Norikuradake,Japan,Stratovolcano(es),50 BCE,Honshu,36.11,137.55,3026.0,Andesite / Basaltic Andesite,Subduction zone / Continental crust (>25 km)
308,Yakedake,Japan,Stratovolcano(es),1995 CE,Honshu,36.23,137.59,2455.0,Andesite / Basaltic Andesite,Subduction zone / Continental crust (>25 km)
309,Midagahara,Japan,Stratovolcano,1839 CE,Honshu,36.57,137.59,2621.0,Andesite / Basaltic Andesite,Subduction zone / Continental crust (>25 km)
310,Niigata-Yakeyama,Japan,Lava dome,1998 CE,Honshu,36.92,138.04,2400.0,Andesite / Basaltic Andesite,Subduction zone / Continental crust (>25 km)
311,Myokosan,Japan,Stratovolcano,750 BCE,Honshu,36.89,138.11,2454.0,Andesite / Basaltic Andesite,Subduction zone / Continental crust (>25 km)
312,Asamayama,Japan,Complex,2019 CE,Honshu,36.41,138.52,2568.0,Andesite / Basaltic Andesite,Subduction zone / Continental crust (>25 km)
313,Kusatsu-Shiranesan,Japan,Stratovolcano(es),2018 CE,Honshu,36.62,138.53,2165.0,Andesite / Basaltic Andesite,Subduction zone / Continental crust (>25 km)
314,Harunasan,Japan,Stratovolcano,550 CE,Honshu,36.48,138.85,1449.0,Andesite / Basaltic Andesite,Subduction zone / Continental crust (>25 km)
315,Hiuchigatake,Japan,Stratovolcano,1544 CE,Honshu,36.96,139.29,2356.0,Andesite / Basaltic Andesite,Subduction zone / Continental crust (>25 km)
316,Nikko-Shiranesan,Japan,Shield,1952 CE,Honshu,36.8,139.38,2578.0,Andesite / Basaltic Andesite,Subduction zone / Continental crust (>25 km)
317,Nantaisan,Japan,Stratovolcano,9540 BCE,Honshu,36.77,139.49,2486.0,Andesite / Basaltic Andesite,Subduction zone / Continental crust (>25 km)
318,Omanago Group,Japan,Lava dome(s),3050 BCE,Honshu,36.8,139.51,2341.0,Dacite,Subduction zone / Continental crust (>25 km)
319,Takaharayama,Japan,Stratovolcano,4570 BCE,Honshu,36.9,139.78,1795.0,Andesite / Basaltic Andesite,Subduction zone / Continental crust (>25 km)
320,Nasudake,Japan,Stratovolcano(es),1963 CE,Honshu,37.13,139.96,1915.0,Andesite / Basaltic Andesite,Subduction zone / Continental crust (>25 km)
321,Numazawa,Japan,Shield,3400 BCE,Honshu,37.44,139.57,835.0,Dacite,Subduction zone / Continental crust (>25 km)
322,Bandaisan,Japan,Stratovolcano,1888 CE,Honshu,37.6,140.07,1816.0,Andesite / Basaltic Andesite,Subduction zone / Continental crust (>25 km)
323,Adatarayama,Japan,Stratovolcano(es),1996 CE,Honshu,37.65,140.28,1728.0,Andesite / Basaltic Andesite,Subduction zone / Continental crust (>25 km)
324,Azumayama,Japan,Stratovolcano(es),1977 CE,Honshu,37.74,140.24,1949.0,Andesite / Basaltic Andesite,Subduction zone / Continental crust (>25 km)
325,Zaozan [Zaosan],Japan,Complex,1940 CE,Honshu,38.14,140.44,1841.0,Andesite / Basaltic Andesite,Subduction zone / Continental crust (>25 km)
326,Naruko,Japan,Caldera,837 CE,Honshu,38.73,140.73,470.0,Rhyolite,Subduction zone / Continental crust (>25 km)
327,Kurikomayama,Japan,Stratovolcano,1950 CE,Honshu,38.96,140.79,1627.0,Andesite / Basaltic Andesite,Subduction zone / Continental crust (>25 km)
328,Chokaisan,Japan,Stratovolcano(es),1974 CE,Honshu,39.1,140.05,2236.0,Andesite / Basaltic Andesite,Subduction zone / Continental crust (>25 km)
329,Akita-Komagatake,Japan,Stratovolcano(es),1971 CE,Honshu,39.76,140.8,1637.0,Basalt / Picro-Basalt,Subduction zone / Continental crust (>25 km)
330,Iwatesan,Japan,Complex,1919 CE,Honshu,39.85,141.0,2038.0,Basalt / Picro-Basalt,Subduction zone / Continental crust (>25 km)
331,Hachimantai,Japan,Stratovolcano,5350 BCE,Honshu,39.96,140.85,1613.0,Andesite / Basaltic Andesite,Subduction zone / Continental crust (>25 km)
332,Akita-Yakeyama,Japan,Stratovolcano,1997 CE,Honshu,39.96,140.76,1366.0,Andesite / Basaltic Andesite,Subduction zone / Continental crust (>25 km)
333,Megata,Japan,Maar(s),2050 BCE,Honshu,39.95,139.73,291.0,Andesite / Basaltic Andesite,Subduction zone / Continental crust (>25 km)
334,Iwakisan,Japan,Stratovolcano,1863 CE,Honshu,40.66,140.3,1625.0,Andesite / Basaltic Andesite,Subduction zone / Continental crust (>25 km)
335,Towada,Japan,Caldera,915 CE,Honshu,40.51,140.88,1011.0,Andesite / Basaltic Andesite,Subduction zone / Continental crust (>25 km)
336,Hakkodasan,Japan,Stratovolcano(es),1550 CE,Honshu,40.66,140.88,1585.0,Andesite / Basaltic Andesite,Subduction zone / Continental crust (>25 km)
337,Osorezan,Japan,Stratovolcano,1787 CE,Honshu,41.28,141.12,878.0,Andesite / Basaltic Andesite,Subduction zone / Continental crust (>25 km)
338,Izu-Oshima,Japan,Stratovolcano,1990 CE,"Izu, Volcano, and Mariana Islands",34.72,139.39,758.0,Basalt / Picro-Basalt,Subduction zone / Oceanic crust (< 15 km)
339,Toshima,Japan,Stratovolcano,4550 BCE,"Izu, Volcano, and Mariana Islands",34.52,139.28,508.0,Basalt / Picro-Basalt,Subduction zone / Oceanic crust (< 15 km)
340,Niijima,Japan,Lava dome(s),886 CE,"Izu, Volcano, and Mariana Islands",34.4,139.27,432.0,Rhyolite,Subduction zone / Oceanic crust (< 15 km)
341,Kozushima,Japan,Lava dome(s),838 CE,"Izu, Volcano, and Mariana Islands",34.22,139.15,572.0,Rhyolite,Subduction zone / Oceanic crust (< 15 km)
342,Miyakejima,Japan,Stratovolcano,2010 CE,"Izu, Volcano, and Mariana Islands",34.09,139.53,775.0,Basalt / Picro-Basalt,Subduction zone / Oceanic crust (< 15 km)
343,Mikurajima,Japan,Stratovolcano,4100 BCE,"Izu, Volcano, and Mariana Islands",33.87,139.6,851.0,Basalt / Picro-Basalt,Subduction zone / Oceanic crust (< 15 km)
344,Hachijojima,Japan,Stratovolcano(es),1606 CE,"Izu, Volcano, and Mariana Islands",33.14,139.77,854.0,Basalt / Picro-Basalt,Subduction zone / Oceanic crust (< 15 km)
345,Aogashima,Japan,Stratovolcano,1785 CE,"Izu, Volcano, and Mariana Islands",32.46,139.76,423.0,Basalt / Picro-Basalt,Subduction zone / Oceanic crust (< 15 km)
346,Myojinsho,Japan,Submarine,1970 CE,"Izu, Volcano, and Mariana Islands",31.89,139.92,11.0,Dacite,Subduction zone / Oceanic crust (< 15 km)
347,Sumisujima,Japan,Submarine,1916 CE,"Izu, Volcano, and Mariana Islands",31.44,140.05,136.0,Dacite,Subduction zone / Oceanic crust (< 15 km)
348,Izu-Torishima,Japan,Stratovolcano,2002 CE,"Izu, Volcano, and Mariana Islands",30.48,140.3,394.0,Basalt / Picro-Basalt,Subduction zone / Oceanic crust (< 15 km)
349,Nishinoshima,Japan,Caldera,2020 CE,"Izu, Volcano, and Mariana Islands",27.25,140.87,25.0,Andesite / Basaltic Andesite,Subduction zone / Crustal thickness unknown
350,Kaitoku Seamount,Japan,Submarine,1984 CE,"Izu, Volcano, and Mariana Islands",26.13,141.1,-95.0,Basalt / Picro-Basalt,Subduction zone / Crustal thickness unknown
351,Kita-Ioto,Japan,Stratovolcano,1945 CE,"Izu, Volcano, and Mariana Islands",25.42,141.28,792.0,Basalt / Picro-Basalt,Subduction zone / Crustal thickness unknown
352,Ioto,Japan,Caldera,2012 CE,"Izu, Volcano, and Mariana Islands",24.75,141.29,169.0,Trachyandesite / Basaltic Trachyandesite,Subduction zone / Crustal thickness unknown
353,Kita-Fukutokutai,Japan,Submarine,1954 CE,"Izu, Volcano, and Mariana Islands",24.42,141.42,-73.0,No Data (checked),Subduction zone / Crustal thickness unknown
354,Fukutoku-Oka-no-Ba,Japan,Submarine,2010 CE,"Izu, Volcano, and Mariana Islands",24.29,141.48,-29.0,Trachyandesite / Basaltic Trachyandesite,Subduction zone / Crustal thickness unknown
355,Minami-Hiyoshi,Japan,Submarine,1975 CE,"Izu, Volcano, and Mariana Islands",23.5,141.94,-107.0,Trachyandesite / Basaltic Trachyandesite,Subduction zone / Crustal thickness unknown
356,Fukujin,United States,Submarine,1974 CE,"Izu, Volcano, and Mariana Islands",21.93,143.47,-217.0,Andesite / Basaltic Andesite,Subduction zone / Crustal thickness unknown
357,Kasuga 1,United States,Submarine,1959 CE,"Izu, Volcano, and Mariana Islands",21.77,143.71,-598.0,Andesite / Basaltic Andesite,Subduction zone / Crustal thickness unknown
358,Farallon de Pajaros,United States,Stratovolcano,1967 CE,"Izu, Volcano, and Mariana Islands",20.55,144.89,337.0,Andesite / Basaltic Andesite,Subduction zone / Crustal thickness unknown
359,Ahyi,United States,Submarine,2014 CE,"Izu, Volcano, and Mariana Islands",20.42,145.03,-75.0,Andesite / Basaltic Andesite,Subduction zone / Crustal thickness unknown
360,Supply Reef,United States,Submarine,1989 CE,"Izu, Volcano, and Mariana Islands",20.13,145.1,-8.0,Andesite / Basaltic Andesite,Subduction zone / Crustal thickness unknown
361,Asuncion,United States,Stratovolcano,1906 CE,"Izu, Volcano, and Mariana Islands",19.67,145.41,857.0,Andesite / Basaltic Andesite,Subduction zone / Crustal thickness unknown
362,Agrigan,United States,Stratovolcano,1917 CE,"Izu, Volcano, and Mariana Islands",18.77,145.67,965.0,Basalt / Picro-Basalt,Subduction zone / Crustal thickness unknown
363,Pagan,United States,Stratovolcano(es),2012 CE,"Izu, Volcano, and Mariana Islands",18.13,145.8,570.0,Basalt / Picro-Basalt,Subduction zone / Crustal thickness unknown
364,Alamagan,United States,Stratovolcano,870 CE,"Izu, Volcano, and Mariana Islands",17.6,145.83,744.0,Andesite / Basaltic Andesite,Subduction zone / Crustal thickness unknown
365,Guguan,United States,Stratovolcano,1883 CE,"Izu, Volcano, and Mariana Islands",17.31,145.85,287.0,Andesite / Basaltic Andesite,Subduction zone / Crustal thickness unknown
366,South Sarigan Seamount,United States,Submarine,2010 CE,"Izu, Volcano, and Mariana Islands",16.58,145.78,-184.0,No Data (checked),Subduction zone / Crustal thickness unknown
367,Anatahan,United States,Stratovolcano,2008 CE,"Izu, Volcano, and Mariana Islands",16.35,145.67,790.0,Andesite / Basaltic Andesite,Subduction zone / Crustal thickness unknown
368,Ruby,United States,Submarine,1995 CE,"Izu, Volcano, and Mariana Islands",15.62,145.57,-230.0,Basalt / Picro-Basalt,Subduction zone / Crustal thickness unknown
369,NW Rota-1,United States,Submarine,2010 CE,"Izu, Volcano, and Mariana Islands",14.6,144.78,-517.0,Basalt / Picro-Basalt,Subduction zone / Crustal thickness unknown
370,Oshima-Oshima,Japan,Stratovolcano,1790 CE,Hokkaido,41.51,139.37,732.0,Basalt / Picro-Basalt,Subduction zone / Continental crust (>25 km)
371,Esan,Japan,Lava dome(s),1874 CE,Hokkaido,41.81,141.17,618.0,Andesite / Basaltic Andesite,Subduction zone / Continental crust (>25 km)
372,Hokkaido-Komagatake,Japan,Stratovolcano,2000 CE,Hokkaido,42.06,140.68,1131.0,Andesite / Basaltic Andesite,Subduction zone / Continental crust (>25 km)
373,Toya,Japan,Stratovolcano,2001 CE,Hokkaido,42.54,140.84,733.0,Basalt / Picro-Basalt,Subduction zone / Continental crust (>25 km)
374,Niseko,Japan,Stratovolcano(es),4900 BCE,Hokkaido,42.88,140.66,1308.0,Andesite / Basaltic Andesite,Subduction zone / Continental crust (>25 km)
375,Yoteizan,Japan,Stratovolcano,1050 BCE,Hokkaido,42.83,140.81,1888.0,Andesite / Basaltic Andesite,Subduction zone / Continental crust (>25 km)
376,Kuttara,Japan,Stratovolcano(es),1820 CE,Hokkaido,42.49,141.16,549.0,Basalt / Picro-Basalt,Subduction zone / Continental crust (>25 km)
377,Shikotsu,Japan,Caldera,1979 CE,Hokkaido,42.69,141.38,1320.0,Andesite / Basaltic Andesite,Subduction zone / Continental crust (>25 km)
378,Rishirizan,Japan,Stratovolcano,5830 BCE,Hokkaido,45.18,141.24,1721.0,Andesite / Basaltic Andesite,Subduction zone / Continental crust (>25 km)
379,Tokachidake,Japan,Stratovolcano(es),2004 CE,Hokkaido,43.42,142.69,2077.0,Andesite / Basaltic Andesite,Subduction zone / Continental crust (>25 km)
380,Taisetsuzan,Japan,Stratovolcano(es),1739 CE,Hokkaido,43.66,142.85,2291.0,Andesite / Basaltic Andesite,Subduction zone / Continental crust (>25 km)
381,Maruyama,Japan,Stratovolcano(es),1898 CE,Hokkaido,43.42,143.03,2013.0,Andesite / Basaltic Andesite,Subduction zone / Continental crust (>25 km)
382,Akan,Japan,Caldera,2008 CE,Hokkaido,43.38,144.01,1499.0,Andesite / Basaltic Andesite,Subduction zone / Continental crust (>25 km)
383,Kussharo,Japan,Caldera,1320 CE,Hokkaido,43.62,144.43,574.0,Dacite,Subduction zone / Continental crust (>25 km)
384,Mashu,Japan,Caldera,1080 CE,Hokkaido,43.57,144.56,857.0,Andesite / Basaltic Andesite,Subduction zone / Continental crust (>25 km)
385,Rausudake,Japan,Stratovolcano,1800 CE,Hokkaido,44.08,145.12,1660.0,Andesite / Basaltic Andesite,Subduction zone / Continental crust (>25 km)
386,Shiretoko-Iozan,Japan,Stratovolcano,1936 CE,Hokkaido,44.13,145.16,1562.0,Andesite / Basaltic Andesite,Subduction zone / Continental crust (>25 km)
387,Tomariyama [Golovnin],Japan - administered by Russia,Caldera,1848 CE,Kuril Islands,43.84,145.5,535.0,Andesite / Basaltic Andesite,Subduction zone / Intermediate crust (15-25 km)
388,Raususan [Mendeleev],Japan - administered by Russia,Stratovolcano,1880 CE,Kuril Islands,43.98,145.73,882.0,Andesite / Basaltic Andesite,Subduction zone / Intermediate crust (15-25 km)
389,Chachadake [Tiatia],Japan - administered by Russia,Stratovolcano,1981 CE,Kuril Islands,44.35,146.25,1822.0,Basalt / Picro-Basalt,Subduction zone / Intermediate crust (15-25 km)
390,Moekeshiwan [Lvinaya Past],Japan - administered by Russia,Stratovolcano,7480 BCE,Kuril Islands,44.61,146.99,528.0,Andesite / Basaltic Andesite,Subduction zone / Intermediate crust (15-25 km)
391,Etorofu-Atosanupuri [Atosanupuri],Japan - administered by Russia,Stratovolcano,1932 CE,Kuril Islands,44.81,147.13,1206.0,Andesite / Basaltic Andesite,Subduction zone / Intermediate crust (15-25 km)
392,Etorofu-Yakeyama [Grozny Group],Japan - administered by Russia,Complex(es),2013 CE,Kuril Islands,45.01,147.87,1158.0,Andesite / Basaltic Andesite,Subduction zone / Intermediate crust (15-25 km)
393,Sashiusudake [Baransky],Japan - administered by Russia,Stratovolcano,1951 CE,Kuril Islands,45.1,148.02,1125.0,Andesite / Basaltic Andesite,Subduction zone / Intermediate crust (15-25 km)
394,Chirippusan [Chirip],Japan - administered by Russia,Stratovolcano(es),1860 CE,Kuril Islands,45.34,147.92,1587.0,Basalt / Picro-Basalt,Subduction zone / Intermediate crust (15-25 km)
395,Moyorodake [Medvezhia],Japan - administered by Russia,Stratovolcano,1999 CE,Kuril Islands,45.39,148.84,1124.0,Andesite / Basaltic Andesite,Subduction zone / Intermediate crust (15-25 km)
396,Kolokol Group,Russia,Stratovolcano,1973 CE,Kuril Islands,46.04,150.08,1328.0,Andesite / Basaltic Andesite,Subduction zone / Intermediate crust (15-25 km)
397,Chirpoi,Russia,Caldera,2016 CE,Kuril Islands,46.53,150.87,742.0,Andesite / Basaltic Andesite,Subduction zone / Oceanic crust (< 15 km)
398,Unnamed,Russia,Submarine,1972 CE,Kuril Islands,46.47,151.28,-502.0,No Data (checked),Subduction zone / Oceanic crust (< 15 km)
399,Milna,Russia,Stratovolcano,1914 CE,Kuril Islands,46.82,151.79,1504.0,Andesite / Basaltic Andesite,Subduction zone / Oceanic crust (< 15 km)
400,Zavaritzki Caldera,Russia,Caldera,1957 CE,Kuril Islands,46.93,151.95,624.0,Andesite / Basaltic Andesite,Subduction zone / Oceanic crust (< 15 km)
401,Prevo Peak,Russia,Stratovolcano,1825 CE,Kuril Islands,47.02,152.12,1360.0,Basalt / Picro-Basalt,Subduction zone / Oceanic crust (< 15 km)
402,Ketoi,Russia,Stratovolcano,1960 CE,Kuril Islands,47.35,152.48,1172.0,Andesite / Basaltic Andesite,Subduction zone / Oceanic crust (< 15 km)
403,Ushishur,Russia,Caldera,1884 CE,Kuril Islands,47.52,152.8,401.0,Andesite / Basaltic Andesite,Subduction zone / Oceanic crust (< 15 km)
404,Rasshua,Russia,Stratovolcano,1957 CE,Kuril Islands,47.77,153.02,956.0,Andesite / Basaltic Andesite,Subduction zone / Oceanic crust (< 15 km)
405,Sarychev Peak,Russia,Stratovolcano,2019 CE,Kuril Islands,48.09,153.2,1496.0,Andesite / Basaltic Andesite,Subduction zone / Intermediate crust (15-25 km)
406,Raikoke,Russia,Stratovolcano,2019 CE,Kuril Islands,48.29,153.25,551.0,Basalt / Picro-Basalt,Subduction zone / Intermediate crust (15-25 km)
407,Chirinkotan,Russia,Stratovolcano,2017 CE,Kuril Islands,48.98,153.48,724.0,Andesite / Basaltic Andesite,Subduction zone / Intermediate crust (15-25 km)
408,Ekarma,Russia,Stratovolcano,2010 CE,Kuril Islands,48.96,153.93,1170.0,Andesite / Basaltic Andesite,Subduction zone / Intermediate crust (15-25 km)
409,Sinarka,Russia,Stratovolcano,1878 CE,Kuril Islands,48.87,154.18,911.0,Andesite / Basaltic Andesite,Subduction zone / Intermediate crust (15-25 km)
410,Kharimkotan,Russia,Stratovolcano,1933 CE,Kuril Islands,49.12,154.51,1145.0,Andesite / Basaltic Andesite,Subduction zone / Intermediate crust (15-25 km)
411,Tao-Rusyr Caldera,Russia,Stratovolcano,1952 CE,Kuril Islands,49.35,154.7,1325.0,Andesite / Basaltic Andesite,Subduction zone / Intermediate crust (15-25 km)
412,Nemo Peak,Russia,Caldera,1938 CE,Kuril Islands,49.57,154.81,1018.0,Andesite / Basaltic Andesite,Subduction zone / Intermediate crust (15-25 km)
413,Fuss Peak,Russia,Stratovolcano,1854 CE,Kuril Islands,50.27,155.25,1742.0,Andesite / Basaltic Andesite,Subduction zone / Continental crust (>25 km)
414,Karpinsky Group,Russia,Cone(s),1952 CE,Kuril Islands,50.15,155.37,1326.0,Andesite / Basaltic Andesite,Subduction zone / Continental crust (>25 km)
415,Chikurachki,Russia,Stratovolcano(es),2016 CE,Kuril Islands,50.32,155.46,1781.0,Basalt / Picro-Basalt,Subduction zone / Continental crust (>25 km)
416,Ebeko,Russia,Stratovolcano,2020 CE,Kuril Islands,50.69,156.01,1103.0,Andesite / Basaltic Andesite,Subduction zone / Continental crust (>25 km)
417,Alaid,Russia,Stratovolcano,2018 CE,Kuril Islands,50.86,155.57,2285.0,Basalt / Picro-Basalt,Subduction zone / Continental crust (>25 km)
418,Kambalny,Russia,Stratovolcano,2017 CE,Kamchatka Peninsula,51.31,156.88,2116.0,Basalt / Picro-Basalt,Subduction zone / Continental crust (>25 km)
419,Koshelev,Russia,Stratovolcano,1690 CE,Kamchatka Peninsula,51.36,156.75,1822.0,Basalt / Picro-Basalt,Subduction zone / Continental crust (>25 km)
420,Yavinsky,Russia,Stratovolcano,4050 BCE,Kamchatka Peninsula,51.53,156.63,646.0,Basalt / Picro-Basalt,Subduction zone / Continental crust (>25 km)
421,Diky Greben,Russia,Lava dome(s),350 CE,Kamchatka Peninsula,51.45,156.98,1040.0,Dacite,Subduction zone / Continental crust (>25 km)
422,Kurile Lake,Russia,Caldera,6440 BCE,Kamchatka Peninsula,51.45,157.12,81.0,Dacite,Subduction zone / Continental crust (>25 km)
423,Iliinsky,Russia,Stratovolcano,1901 CE,Kamchatka Peninsula,51.5,157.2,1555.0,Andesite / Basaltic Andesite,Subduction zone / Continental crust (>25 km)
424,Zheltovsky,Russia,Stratovolcano,1923 CE,Kamchatka Peninsula,51.58,157.33,1926.0,Basalt / Picro-Basalt,Subduction zone / Continental crust (>25 km)
425,Ksudach,Russia,Stratovolcano,1907 CE,Kamchatka Peninsula,51.84,157.57,1079.0,Andesite / Basaltic Andesite,Subduction zone / Continental crust (>25 km)
426,Khodutka,Russia,Stratovolcano(es),300 BCE,Kamchatka Peninsula,52.06,157.71,2039.0,Andesite / Basaltic Andesite,Subduction zone / Continental crust (>25 km)
427,Mutnovsky,Russia,Complex,2000 CE,Kamchatka Peninsula,52.45,158.2,2288.0,Basalt / Picro-Basalt,Subduction zone / Continental crust (>25 km)
428,Gorely,Russia,Caldera,2010 CE,Kamchatka Peninsula,52.56,158.03,1799.0,Basalt / Picro-Basalt,Subduction zone / Continental crust (>25 km)
429,Opala,Russia,Caldera,1776 CE,Kamchatka Peninsula,52.54,157.34,2439.0,Basalt / Picro-Basalt,Subduction zone / Continental crust (>25 km)
430,Tolmachev Dol,Russia,Pyroclastic cone(s),300 CE,Kamchatka Peninsula,52.63,157.58,1021.0,Basalt / Picro-Basalt,Subduction zone / Continental crust (>25 km)
431,Vilyuchik,Russia,Stratovolcano,8050 BCE,Kamchatka Peninsula,52.7,158.28,2173.0,Andesite / Basaltic Andesite,Subduction zone / Continental crust (>25 km)
432,Barkhatnaya Sopka,Russia,Lava dome(s),3550 BCE,Kamchatka Peninsula,52.8,158.24,874.0,Basalt / Picro-Basalt,Subduction zone / Continental crust (>25 km)
433,Koryaksky,Russia,Stratovolcano,2009 CE,Kamchatka Peninsula,53.32,158.71,3430.0,Andesite / Basaltic Andesite,Subduction zone / Continental crust (>25 km)
434,Avachinsky,Russia,Stratovolcano,2001 CE,Kamchatka Peninsula,53.26,158.84,2717.0,Andesite / Basaltic Andesite,Subduction zone / Continental crust (>25 km)
435,Zhupanovsky,Russia,Compound,2016 CE,Kamchatka Peninsula,53.59,159.15,2899.0,Andesite / Basaltic Andesite,Subduction zone / Continental crust (>25 km)
436,Veer,Russia,Pyroclastic cone(s),390 CE,Kamchatka Peninsula,53.75,158.45,520.0,Basalt / Picro-Basalt,Subduction zone / Continental crust (>25 km)
437,Kostakan,Russia,Pyroclastic cone(s),1350 CE,Kamchatka Peninsula,53.83,158.05,1150.0,Basalt / Picro-Basalt,Subduction zone / Continental crust (>25 km)
438,Bakening,Russia,Stratovolcano,550 BCE,Kamchatka Peninsula,53.91,158.07,2278.0,Andesite / Basaltic Andesite,Subduction zone / Continental crust (>25 km)
439,Zavaritsky,Russia,Pyroclastic cone(s),800 BCE,Kamchatka Peninsula,53.91,158.39,1567.0,Basalt / Picro-Basalt,Subduction zone / Continental crust (>25 km)
440,Akademia Nauk,Russia,Stratovolcano(es),1996 CE,Kamchatka Peninsula,53.98,159.45,1180.0,Andesite / Basaltic Andesite,Subduction zone / Continental crust (>25 km)
441,Karymsky,Russia,Stratovolcano,2019 CE,Kamchatka Peninsula,54.05,159.44,1513.0,Andesite / Basaltic Andesite,Subduction zone / Continental crust (>25 km)
442,Maly Semyachik,Russia,Caldera,1952 CE,Kamchatka Peninsula,54.14,159.67,1527.0,Basalt / Picro-Basalt,Subduction zone / Continental crust (>25 km)
443,Bolshoi Semiachik,Russia,Stratovolcano(es),4450 BCE,Kamchatka Peninsula,54.32,160.02,1720.0,Basalt / Picro-Basalt,Subduction zone / Continental crust (>25 km)
444,Taunshits,Russia,Stratovolcano,550 BCE,Kamchatka Peninsula,54.53,159.8,2301.0,Andesite / Basaltic Andesite,Subduction zone / Continental crust (>25 km)
445,Uzon,Russia,Caldera(s),200 CE,Kamchatka Peninsula,54.5,159.97,1617.0,Andesite / Basaltic Andesite,Subduction zone / Continental crust (>25 km)
446,Kikhpinych,Russia,Stratovolcano(es),1550 CE,Kamchatka Peninsula,54.49,160.25,1506.0,Basalt / Picro-Basalt,Subduction zone / Continental crust (>25 km)
447,Krasheninnikov,Russia,Caldera,1550 CE,Kamchatka Peninsula,54.6,160.27,1816.0,Basalt / Picro-Basalt,Subduction zone / Continental crust (>25 km)
448,Kronotsky,Russia,Stratovolcano,1923 CE,Kamchatka Peninsula,54.75,160.53,3482.0,Basalt / Picro-Basalt,Subduction zone / Continental crust (>25 km)
449,Gamchen,Russia,Complex,550 BCE,Kamchatka Peninsula,54.97,160.7,2539.0,Basalt / Picro-Basalt,Subduction zone / Continental crust (>25 km)
450,Komarov,Russia,Stratovolcano,950 CE,Kamchatka Peninsula,55.03,160.73,2065.0,Basalt / Picro-Basalt,Subduction zone / Continental crust (>25 km)
451,Vysoky,Russia,Stratovolcano,550 BCE,Kamchatka Peninsula,55.06,160.77,2129.0,Andesite / Basaltic Andesite,Subduction zone / Continental crust (>25 km)
452,Kizimen,Russia,Stratovolcano,2013 CE,Kamchatka Peninsula,55.13,160.32,2334.0,Andesite / Basaltic Andesite,Subduction zone / Continental crust (>25 km)
453,Tolbachik,Russia,Shield,2013 CE,Kamchatka Peninsula,55.83,160.33,3611.0,Basalt / Picro-Basalt,Subduction zone / Continental crust (>25 km)
454,Bezymianny,Russia,Stratovolcano,2020 CE,Kamchatka Peninsula,55.97,160.6,2882.0,Andesite / Basaltic Andesite,Subduction zone / Continental crust (>25 km)
455,Klyuchevskoy,Russia,Stratovolcano,2020 CE,Kamchatka Peninsula,56.06,160.64,4754.0,Basalt / Picro-Basalt,Subduction zone / Continental crust (>25 km)
456,Ushkovsky,Russia,Compound,1890 CE,Kamchatka Peninsula,56.11,160.51,3943.0,Basalt / Picro-Basalt,Subduction zone / Continental crust (>25 km)
457,Sheveluch,Russia,Stratovolcano,2020 CE,Kamchatka Peninsula,56.65,161.36,3283.0,Andesite / Basaltic Andesite,Subduction zone / Continental crust (>25 km)
458,Piip,Russia,Submarine,5050 BCE,Kamchatka Peninsula,55.42,167.33,-300.0,Dacite,Subduction zone / Intermediate crust (15-25 km)
459,Khangar,Russia,Stratovolcano,1500 CE,Kamchatka Peninsula,54.76,157.41,1967.0,Dacite,Subduction zone / Continental crust (>25 km)
460,Cherpuk Group,Russia,Pyroclastic cone(s),4550 BCE,Kamchatka Peninsula,55.55,157.47,1868.0,Andesite / Basaltic Andesite,Subduction zone / Continental crust (>25 km)
461,Ichinsky,Russia,Stratovolcano,1740 CE,Kamchatka Peninsula,55.68,157.72,3596.0,Basalt / Picro-Basalt,Subduction zone / Continental crust (>25 km)
462,Bolshoi-Kekuknaysky,Russia,Shield(s),5310 BCE,Kamchatka Peninsula,56.48,157.92,1401.0,Basalt / Picro-Basalt,Subduction zone / Continental crust (>25 km)
463,Alney-Chashakondzha,Russia,Stratovolcano,1600 CE,Kamchatka Peninsula,56.66,159.65,2570.0,Basalt / Picro-Basalt,Subduction zone / Continental crust (>25 km)
464,Shisheika,Russia,Lava dome,2240 BCE,Kamchatka Peninsula,57.15,161.09,355.0,Andesite / Basaltic Andesite,Subduction zone / Continental crust (>25 km)
465,Terpuk,Russia,Shield,800 BCE,Kamchatka Peninsula,57.2,159.83,765.0,Basalt / Picro-Basalt,Subduction zone / Continental crust (>25 km)
466,Sedankinsky,Russia,Shield,7050 BCE,Kamchatka Peninsula,57.27,160.08,1241.0,Basalt / Picro-Basalt,Subduction zone / Continental crust (>25 km)
467,Gorny Institute,Russia,Stratovolcano,1250 CE,Kamchatka Peninsula,57.33,160.2,2125.0,Andesite / Basaltic Andesite,Subduction zone / Continental crust (>25 km)
468,Kinenin,Russia,Maar,850 CE,Kamchatka Peninsula,57.35,160.97,583.0,Basalt / Picro-Basalt,Subduction zone / Continental crust (>25 km)
469,Bliznetsy,Russia,Lava cone,1060 BCE,Kamchatka Peninsula,57.35,161.37,265.0,Andesite / Basaltic Andesite,Subduction zone / Continental crust (>25 km)
470,Titila,Russia,Shield(s),550 BCE,Kamchatka Peninsula,57.41,160.11,1523.0,Basalt / Picro-Basalt,Subduction zone / Continental crust (>25 km)
471,Elovsky,Russia,Shield(s),7550 BCE,Kamchatka Peninsula,57.55,160.53,1381.0,Basalt / Picro-Basalt,Subduction zone / Continental crust (>25 km)
472,Nylgimelkin,Russia,Shield(s),3550 BCE,Kamchatka Peninsula,57.97,160.65,1764.0,Basalt / Picro-Basalt,Subduction zone / Continental crust (>25 km)
473,Spokoiny,Russia,Stratovolcano,3450 BCE,Kamchatka Peninsula,58.13,160.82,2171.0,Dacite,Subduction zone / Continental crust (>25 km)
474,Ostry,Russia,Stratovolcano,2050 BCE,Kamchatka Peninsula,58.18,160.82,2552.0,Basalt / Picro-Basalt,Subduction zone / Continental crust (>25 km)
475,Severny,Russia,Shield,1550 BCE,Kamchatka Peninsula,58.28,160.87,1936.0,Basalt / Picro-Basalt,Subduction zone / Continental crust (>25 km)
476,Udokan Plateau,Russia,Pyroclastic cone(s),220 BCE,Russia (southeastern),56.28,117.77,2180.0,Trachybasalt / Tephrite Basanite,Rift zone / Continental crust (>25 km)
477,Jom-Bolok,Russia,Volcanic field,5180 BCE,Russia (southeastern),52.71,99.02,2047.0,Basalt / Picro-Basalt,Rift zone / Continental crust (>25 km)
478,Taryatu-Chulutu,Mongolia,Volcanic field,2980 BCE,Mongolia,48.13,99.95,2326.0,Trachybasalt / Tephrite Basanite,Intraplate / Continental crust (>25 km)
479,Kunlun Volcanic Group,China,Pyroclastic cone(s),1951 CE,China (western),35.52,80.2,5808.0,Trachyte / Trachydacite,Intraplate / Continental crust (>25 km)
480,Arxan-Chaihe,China,Pyroclastic cone(s),0 CE,China (eastern),47.45,120.8,1677.0,Basalt / Picro-Basalt,Intraplate / Continental crust (>25 km)
481,Wudalianchi,China,Volcanic field,1776 CE,China (eastern),48.72,126.12,597.0,Trachybasalt / Tephrite Basanite,Intraplate / Continental crust (>25 km)
482,Jingbo,China,Volcanic field,520 BCE,China (eastern),44.08,128.83,1000.0,Trachybasalt / Tephrite Basanite,Intraplate / Continental crust (>25 km)
483,Longgang Group,China,Pyroclastic cone(s),350 CE,China (eastern),42.33,126.5,1000.0,Basalt / Picro-Basalt,Intraplate / Continental crust (>25 km)
484,Changbaishan,China-North Korea,Stratovolcano,1903 CE,China (eastern),41.98,128.08,2744.0,Trachyte / Trachydacite,Intraplate / Continental crust (>25 km)
485,Ulreung,South Korea,Stratovolcano,2990 BCE,Korea,37.5,130.87,984.0,Trachyandesite / Basaltic Trachyandesite,Intraplate / Continental crust (>25 km)
486,Halla,South Korea,Shield,1007 CE,Korea,33.36,126.53,1919.0,Basalt / Picro-Basalt,Intraplate / Continental crust (>25 km)
487,Kiska,United States,Stratovolcano,1990 CE,Aleutian Islands,52.1,177.6,1220.0,Andesite / Basaltic Andesite,Subduction zone / Intermediate crust (15-25 km)
488,Little Sitkin,United States,Stratovolcano,1830 CE,Aleutian Islands,51.95,178.54,1174.0,Andesite / Basaltic Andesite,Subduction zone / Intermediate crust (15-25 km)
489,Semisopochnoi,United States,Stratovolcano,2020 CE,Aleutian Islands,51.93,179.58,1221.0,Basalt / Picro-Basalt,Subduction zone / Intermediate crust (15-25 km)
490,Gareloi,United States,Stratovolcano,1989 CE,Aleutian Islands,51.79,-178.79,1573.0,Basalt / Picro-Basalt,Subduction zone / Intermediate crust (15-25 km)
491,Tanaga,United States,Stratovolcano(es),1914 CE,Aleutian Islands,51.89,-178.15,1806.0,Basalt / Picro-Basalt,Subduction zone / Intermediate crust (15-25 km)
492,Takawangha,United States,Stratovolcano,1550 CE,Aleutian Islands,51.87,-178.01,1449.0,Basalt / Picro-Basalt,Subduction zone / Intermediate crust (15-25 km)
493,Kanaga,United States,Stratovolcano,2012 CE,Aleutian Islands,51.92,-177.17,1307.0,Andesite / Basaltic Andesite,Subduction zone / Intermediate crust (15-25 km)
494,Moffett,United States,Stratovolcano,1600 BCE,Aleutian Islands,51.94,-176.75,1196.0,Andesite / Basaltic Andesite,Subduction zone / Intermediate crust (15-25 km)
495,Great Sitkin,United States,Stratovolcano,2019 CE,Aleutian Islands,52.08,-176.13,1740.0,Andesite / Basaltic Andesite,Subduction zone / Intermediate crust (15-25 km)
496,Kasatochi,United States,Stratovolcano,2008 CE,Aleutian Islands,52.18,-175.51,314.0,Basalt / Picro-Basalt,Subduction zone / Intermediate crust (15-25 km)
497,Koniuji,United States,Stratovolcano,1150 BCE,Aleutian Islands,52.22,-175.13,273.0,Andesite / Basaltic Andesite,Subduction zone / Intermediate crust (15-25 km)
498,Atka,United States,Stratovolcano(es),1812 CE,Aleutian Islands,52.33,-174.14,1448.0,Basalt / Picro-Basalt,Subduction zone / Intermediate crust (15-25 km)
499,Korovin,United States,Stratovolcano(es),2007 CE,Aleutian Islands,52.38,-174.17,1518.0,Basalt / Picro-Basalt,Subduction zone / Continental crust (>25 km)
500,Seguam,United States,Stratovolcano(es),1993 CE,Aleutian Islands,52.32,-172.51,1054.0,Andesite / Basaltic Andesite,Subduction zone / Intermediate crust (15-25 km)
501,Amukta,United States,Stratovolcano,1997 CE,Aleutian Islands,52.5,-171.25,1066.0,Andesite / Basaltic Andesite,Subduction zone / Intermediate crust (15-25 km)
502,Yunaska,United States,Shield,1937 CE,Aleutian Islands,52.64,-170.63,550.0,Andesite / Basaltic Andesite,Subduction zone / Intermediate crust (15-25 km)
503,Carlisle,United States,Stratovolcano,1828 CE,Aleutian Islands,52.89,-170.05,1620.0,Andesite / Basaltic Andesite,Subduction zone / Intermediate crust (15-25 km)
504,Cleveland,United States,Stratovolcano,2019 CE,Aleutian Islands,52.83,-169.94,1730.0,Andesite / Basaltic Andesite,Subduction zone / Intermediate crust (15-25 km)
505,Kagamil,United States,Stratovolcano,1929 CE,Aleutian Islands,52.97,-169.72,893.0,No Data (checked),Subduction zone / Intermediate crust (15-25 km)
506,Vsevidof,United States,Stratovolcano,1878 CE,Aleutian Islands,53.13,-168.69,2149.0,Andesite / Basaltic Andesite,Subduction zone / Intermediate crust (15-25 km)
507,Okmok,United States,Shield,2008 CE,Aleutian Islands,53.43,-168.13,1073.0,Basalt / Picro-Basalt,Subduction zone / Intermediate crust (15-25 km)
508,Bogoslof,United States,Submarine,2017 CE,Aleutian Islands,53.93,-168.03,150.0,Trachyandesite / Basaltic Trachyandesite,Subduction zone / Intermediate crust (15-25 km)
509,Makushin,United States,Stratovolcano,1995 CE,Aleutian Islands,53.89,-166.92,1800.0,Andesite / Basaltic Andesite,Subduction zone / Intermediate crust (15-25 km)
510,Akutan,United States,Stratovolcano,1992 CE,Aleutian Islands,54.13,-165.99,1303.0,Basalt / Picro-Basalt,Subduction zone / Intermediate crust (15-25 km)
511,Westdahl,United States,Stratovolcano?,1992 CE,Aleutian Islands,54.52,-164.65,1563.0,Basalt / Picro-Basalt,Subduction zone / Continental crust (>25 km)
512,Fisher,United States,Stratovolcano,1830 CE,Aleutian Islands,54.65,-164.43,1112.0,Andesite / Basaltic Andesite,Subduction zone / Continental crust (>25 km)
513,Shishaldin,United States,Stratovolcano,2020 CE,Aleutian Islands,54.76,-163.97,2857.0,Basalt / Picro-Basalt,Subduction zone / Continental crust (>25 km)
514,Roundtop,United States,Stratovolcano,7600 BCE,Aleutian Islands,54.8,-163.59,1871.0,Rhyolite,Subduction zone / Continental crust (>25 km)
515,Amak,United States,Stratovolcano,1796 CE,Aleutian Islands,55.42,-163.15,488.0,Andesite / Basaltic Andesite,Subduction zone / Continental crust (>25 km)
516,Pavlof,United States,Stratovolcano,2016 CE,Alaska Peninsula,55.42,-161.89,2493.0,Andesite / Basaltic Andesite,Subduction zone / Continental crust (>25 km)
517,Dana,United States,Stratovolcano,1890 BCE,Alaska Peninsula,55.64,-161.21,1354.0,Andesite / Basaltic Andesite,Subduction zone / Continental crust (>25 km)
518,Kupreanof,United States,Stratovolcano,1987 CE,Alaska Peninsula,56.01,-159.8,1895.0,Andesite / Basaltic Andesite,Subduction zone / Continental crust (>25 km)
519,Veniaminof,United States,Stratovolcano,2018 CE,Alaska Peninsula,56.17,-159.38,2507.0,Andesite / Basaltic Andesite,Subduction zone / Continental crust (>25 km)
520,Black Peak,United States,Stratovolcano,1900 BCE,Alaska Peninsula,56.55,-158.79,1032.0,Andesite / Basaltic Andesite,Subduction zone / Continental crust (>25 km)
521,Aniakchak,United States,Caldera,1931 CE,Alaska Peninsula,56.88,-158.17,1341.0,Andesite / Basaltic Andesite,Subduction zone / Continental crust (>25 km)
522,Yantarni,United States,Stratovolcano,800 BCE,Alaska Peninsula,57.02,-157.19,1345.0,Andesite / Basaltic Andesite,Subduction zone / Continental crust (>25 km)
523,Chiginagak,United States,Stratovolcano,1998 CE,Alaska Peninsula,57.14,-156.99,2221.0,Andesite / Basaltic Andesite,Subduction zone / Continental crust (>25 km)
524,Ugashik-Peulik,United States,Stratovolcano,1814 CE,Alaska Peninsula,57.75,-156.37,1474.0,Andesite / Basaltic Andesite,Subduction zone / Continental crust (>25 km)
525,Ukinrek Maars,United States,Maar(s),1977 CE,Alaska Peninsula,57.83,-156.51,91.0,Basalt / Picro-Basalt,Subduction zone / Continental crust (>25 km)
526,Martin,United States,Stratovolcano,1953 CE,Alaska Peninsula,58.17,-155.36,1863.0,Dacite,Subduction zone / Continental crust (>25 km)
527,Mageik,United States,Stratovolcano,500 BCE,Alaska Peninsula,58.2,-155.25,2165.0,Andesite / Basaltic Andesite,Subduction zone / Continental crust (>25 km)
528,Trident,United States,Stratovolcano,1974 CE,Alaska Peninsula,58.24,-155.1,1864.0,Andesite / Basaltic Andesite,Subduction zone / Continental crust (>25 km)
529,Katmai,United States,Stratovolcano,1912 CE,Alaska Peninsula,58.28,-154.96,2047.0,Andesite / Basaltic Andesite,Subduction zone / Continental crust (>25 km)
530,Novarupta,United States,Caldera,1912 CE,Alaska Peninsula,58.27,-155.16,841.0,Rhyolite,Subduction zone / Continental crust (>25 km)
531,Griggs,United States,Stratovolcano,1790 BCE,Alaska Peninsula,58.35,-155.09,2317.0,Andesite / Basaltic Andesite,Subduction zone / Continental crust (>25 km)
532,Snowy Mountain,United States,Stratovolcano(es),1710 CE,Alaska Peninsula,58.34,-154.68,2162.0,Andesite / Basaltic Andesite,Subduction zone / Continental crust (>25 km)
533,Kaguyak,United States,Lava dome(s),3850 BCE,Alaska Peninsula,58.61,-154.03,901.0,Dacite,Subduction zone / Continental crust (>25 km)
534,Fourpeaked,United States,Stratovolcano,2006 CE,Alaska Peninsula,58.77,-153.67,2105.0,Andesite / Basaltic Andesite,Subduction zone / Continental crust (>25 km)
535,Augustine,United States,Lava dome(s),2006 CE,Alaska (southwestern),59.36,-153.43,1252.0,Andesite / Basaltic Andesite,Subduction zone / Continental crust (>25 km)
536,Iliamna,United States,Stratovolcano,1876 CE,Alaska (southwestern),60.03,-153.09,3053.0,Andesite / Basaltic Andesite,Subduction zone / Continental crust (>25 km)
537,Redoubt,United States,Stratovolcano,2009 CE,Alaska (southwestern),60.49,-152.74,3108.0,Andesite / Basaltic Andesite,Subduction zone / Continental crust (>25 km)
538,Spurr,United States,Stratovolcano,1992 CE,Alaska (southwestern),61.3,-152.25,3374.0,Andesite / Basaltic Andesite,Subduction zone / Continental crust (>25 km)
539,Hayes,United States,Stratovolcano,1200 CE,Alaska (southwestern),61.64,-152.41,3034.0,Dacite,Subduction zone / Continental crust (>25 km)
540,St. Paul Island,United States,Shield,1280 BCE,Alaska (western),57.18,-170.3,203.0,Trachybasalt / Tephrite Basanite,Intraplate / Continental crust (>25 km)
541,Imuruk Lake,United States,Shield(s),300 CE,Alaska (western),65.52,-163.45,610.0,Basalt / Picro-Basalt,Intraplate / Continental crust (>25 km)
542,Buzzard Creek,United States,Tuff ring(s),1050 BCE,Alaska (eastern),64.06,-148.43,830.0,Basalt / Picro-Basalt,Subduction zone / Continental crust (>25 km)
543,Wrangell,United States,Shield,1912 CE,Alaska (eastern),62.01,-144.02,4278.0,Andesite / Basaltic Andesite,Intraplate / Continental crust (>25 km)
544,Churchill,United States,Stratovolcano,847 CE,Alaska (eastern),61.38,-141.75,5005.0,Dacite,Intraplate / Continental crust (>25 km)
545,Edgecumbe,United States,Stratovolcano(es),2220 BCE,Alaska (eastern),57.05,-135.75,970.0,Andesite / Basaltic Andesite,Intraplate / Continental crust (>25 km)
546,Edziza,Canada,Stratovolcano,950 CE,Canada,57.72,-130.63,2786.0,Trachyte / Trachydacite,Intraplate / Continental crust (>25 km)
547,Hoodoo Mountain,Canada,Subglacial,7050 BCE,Canada,56.78,-131.28,1850.0,Phonolite,Intraplate / Continental crust (>25 km)
548,Iskut-Unuk River Cones,Canada,Pyroclastic cone(s),1800 CE,Canada,56.58,-130.55,1880.0,Basalt / Picro-Basalt,Intraplate / Continental crust (>25 km)
549,Tseax River Cone,Canada,Pyroclastic cone,1690 CE,Canada,55.12,-128.9,609.0,Basalt / Picro-Basalt,Intraplate / Continental crust (>25 km)
550,Nazko,Canada,Pyroclastic cone(s),5220 BCE,Canada,52.93,-123.73,1238.0,Trachybasalt / Tephrite Basanite,Intraplate / Continental crust (>25 km)
551,Wells Gray-Clearwater,Canada,Pyroclastic cone(s),1550 CE,Canada,52.33,-120.57,2576.0,Basalt / Picro-Basalt,Intraplate / Continental crust (>25 km)
552,Meager,Canada,Complex,410 BCE,Canada,50.63,-123.5,2680.0,Dacite,Subduction zone / Continental crust (>25 km)
553,Garibaldi,Canada,Stratovolcano,8060 BCE,Canada,49.85,-123.0,2678.0,Dacite,Subduction zone / Continental crust (>25 km)
554,Baker,United States,Stratovolcano(es),1880 CE,USA (Washington),48.78,-121.81,3285.0,Andesite / Basaltic Andesite,Subduction zone / Continental crust (>25 km)
555,Glacier Peak,United States,Stratovolcano,1700 CE,USA (Washington),48.11,-121.11,3213.0,Dacite,Subduction zone / Continental crust (>25 km)
556,Rainier,United States,Stratovolcano,1450 CE,USA (Washington),46.85,-121.76,4392.0,Andesite / Basaltic Andesite,Subduction zone / Continental crust (>25 km)
557,Adams,United States,Stratovolcano,950 CE,USA (Washington),46.21,-121.49,3742.0,Andesite / Basaltic Andesite,Subduction zone / Continental crust (>25 km)
558,St. Helens,United States,Stratovolcano,2008 CE,USA (Washington),46.2,-122.18,2549.0,Dacite,Subduction zone / Continental crust (>25 km)
559,West Crater,United States,Volcanic field,5750 BCE,USA (Washington),45.88,-122.08,1329.0,Andesite / Basaltic Andesite,Subduction zone / Continental crust (>25 km)
560,Indian Heaven,United States,Shield(s),6250 BCE,USA (Washington),45.93,-121.82,1806.0,Basalt / Picro-Basalt,Subduction zone / Continental crust (>25 km)
561,Hood,United States,Stratovolcano,1866 CE,USA (Oregon),45.37,-121.7,3426.0,Andesite / Basaltic Andesite,Subduction zone / Continental crust (>25 km)
562,Jefferson,United States,Stratovolcano,950 CE,USA (Oregon),44.67,-121.8,3199.0,Andesite / Basaltic Andesite,Subduction zone / Continental crust (>25 km)
563,Blue Lake Crater,United States,Maar,680 CE,USA (Oregon),44.41,-121.77,1230.0,Basalt / Picro-Basalt,Subduction zone / Continental crust (>25 km)
564,Sand Mountain Field,United States,Pyroclastic cone(s),950 BCE,USA (Oregon),44.38,-121.93,1664.0,Basalt / Picro-Basalt,Subduction zone / Continental crust (>25 km)
565,Belknap,United States,Shield(s),480 CE,USA (Oregon),44.29,-121.84,2095.0,Andesite / Basaltic Andesite,Subduction zone / Continental crust (>25 km)
566,Three Sisters,United States,Complex,440 CE,USA (Oregon),44.13,-121.77,3159.0,Andesite / Basaltic Andesite,Subduction zone / Continental crust (>25 km)
567,Bachelor,United States,Stratovolcano,5800 BCE,USA (Oregon),43.98,-121.69,2763.0,Andesite / Basaltic Andesite,Subduction zone / Continental crust (>25 km)
568,Davis Lake,United States,Volcanic field,2790 BCE,USA (Oregon),43.57,-121.82,2163.0,Andesite / Basaltic Andesite,Subduction zone / Continental crust (>25 km)
569,Newberry,United States,Shield,690 CE,USA (Oregon),43.72,-121.23,2434.0,Andesite / Basaltic Andesite,Subduction zone / Continental crust (>25 km)
570,Crater Lake,United States,Caldera,2850 BCE,USA (Oregon),42.93,-122.12,2487.0,Dacite,Subduction zone / Continental crust (>25 km)
571,Diamond Craters,United States,Volcanic field,5610 BCE,USA (Oregon),43.1,-118.75,1435.0,Basalt / Picro-Basalt,Rift zone / Continental crust (>25 km)
572,Jordan Craters,United States,Volcanic field,1250 BCE,USA (Oregon),43.15,-117.46,1473.0,Basalt / Picro-Basalt,Rift zone / Continental crust (>25 km)
573,Shasta,United States,Stratovolcano,1250 CE,USA (California),41.41,-122.19,4317.0,Andesite / Basaltic Andesite,Subduction zone / Continental crust (>25 km)
574,Medicine Lake,United States,Shield,1060 CE,USA (California),41.61,-121.55,2412.0,Basalt / Picro-Basalt,Subduction zone / Continental crust (>25 km)
575,Lassen Volcanic Center,United States,Stratovolcano,1917 CE,USA (California),40.49,-121.51,3187.0,Andesite / Basaltic Andesite,Subduction zone / Continental crust (>25 km)
576,Mono Lake Volcanic Field,United States,Pyroclastic cone(s),1790 CE,USA (California),38.0,-119.03,2121.0,Dacite,Rift zone / Continental crust (>25 km)
577,Mono-Inyo Craters,United States,Lava dome(s),1380 CE,USA (California),37.8,-119.03,2796.0,Rhyolite,Rift zone / Continental crust (>25 km)
578,Mammoth Mountain,United States,Lava dome(s),1260 CE,USA (California),37.63,-119.03,3369.0,Trachyte / Trachydacite,Rift zone / Continental crust (>25 km)
579,Ubehebe Craters,United States,Maar(s),150 BCE,USA (California),37.02,-117.45,752.0,Basalt / Picro-Basalt,Rift zone / Continental crust (>25 km)
580,Golden Trout Creek,United States,Volcanic field,5550 BCE,USA (California),36.36,-118.32,2886.0,Basalt / Picro-Basalt,Rift zone / Continental crust (>25 km)
581,Salton Buttes,United States,Lava dome(s),210 CE,USA (California),33.2,-115.62,-40.0,Rhyolite,Rift zone / Continental crust (>25 km)
582,Black Butte Crater Lava Field,United States,Shield,8400 BCE,USA (Idaho),43.18,-114.35,1478.0,Basalt / Picro-Basalt,Rift zone / Continental crust (>25 km)
583,Craters of the Moon,United States,Pyroclastic cone(s),130 BCE,USA (Idaho),43.42,-113.5,2005.0,Basalt / Picro-Basalt,Rift zone / Continental crust (>25 km)
584,Wapi Lava Field,United States,Shield,300 BCE,USA (Idaho),42.88,-113.22,1604.0,Basalt / Picro-Basalt,Rift zone / Continental crust (>25 km)
585,Hell's Half Acre,United States,Shield,3250 BCE,USA (Idaho),43.5,-112.45,1631.0,Basalt / Picro-Basalt,Rift zone / Continental crust (>25 km)
586,Yellowstone,United States,Caldera(s),1350 BCE,USA (Wyoming),44.43,-110.67,2805.0,Rhyolite,Rift zone / Continental crust (>25 km)
587,Markagunt Plateau,United States,Volcanic field,1050 CE,USA (Utah),37.58,-112.67,2840.0,Basalt / Picro-Basalt,Rift zone / Continental crust (>25 km)
588,Black Rock Desert,United States,Volcanic field,1290 CE,USA (Utah),38.97,-112.5,1800.0,Basalt / Picro-Basalt,Rift zone / Continental crust (>25 km)
589,Carrizozo,United States,Pyroclastic cone(s),3250 BCE,USA (New Mexico),33.78,-105.93,1731.0,Basalt / Picro-Basalt,Rift zone / Continental crust (>25 km)
590,Zuni-Bandera,United States,Volcanic field,1170 BCE,USA (New Mexico),34.8,-108.0,2550.0,Basalt / Picro-Basalt,Rift zone / Continental crust (>25 km)
591,Red Hill,United States,Volcanic field,9450 BCE,USA (New Mexico),34.25,-108.83,2300.0,Basalt / Picro-Basalt,Rift zone / Continental crust (>25 km)
592,Dotsero,United States,Maar,2200 BCE,USA (Colorado),39.66,-107.04,2230.0,Basalt / Picro-Basalt,Rift zone / Continental crust (>25 km)
593,Uinkaret Field,United States,Volcanic field,1100 CE,USA (Arizona),36.38,-113.13,1555.0,Trachybasalt / Tephrite Basanite,Rift zone / Continental crust (>25 km)
594,San Francisco Volcanic Field,United States,Pyroclastic cone,1075 CE,USA (Arizona),35.35,-111.68,3850.0,Basalt / Picro-Basalt,Rift zone / Continental crust (>25 km)
595,Endeavour Segment,Canada,Submarine,3490 BCE,Pacific Ocean (northern),47.95,-129.1,-2050.0,Basalt / Picro-Basalt,Rift zone / Oceanic crust (< 15 km)
596,Cobb Segment,Canada,Submarine,1180 BCE,Pacific Ocean (northern),46.88,-129.33,-2100.0,Basalt / Picro-Basalt,Rift zone / Oceanic crust (< 15 km)
597,CoAxial Segment,Undersea Features,Submarine,1993 CE,Pacific Ocean (northern),46.52,-129.58,-2400.0,Basalt / Picro-Basalt,Rift zone / Oceanic crust (< 15 km)
598,Axial Seamount,Undersea Features,Submarine,2015 CE,Pacific Ocean (northern),45.95,-130.0,-1410.0,Basalt / Picro-Basalt,Rift zone / Oceanic crust (< 15 km)
599,Cleft Segment,Undersea Features,Submarine,1986 CE,Pacific Ocean (northern),44.83,-130.3,-2140.0,Basalt / Picro-Basalt,Rift zone / Oceanic crust (< 15 km)
600,North Gorda Ridge Segment,Undersea Features,Submarine,1996 CE,Pacific Ocean (northern),42.67,-126.78,-3000.0,Basalt / Picro-Basalt,Rift zone / Oceanic crust (< 15 km)
601,Escanaba Segment,Undersea Features,Submarine,2260 BCE,Pacific Ocean (northern),40.98,-127.5,-1700.0,Basalt / Picro-Basalt,Rift zone / Oceanic crust (< 15 km)
602,Loihi,United States,Submarine,1996 CE,Hawaiian Islands,18.92,-155.27,-975.0,Basalt / Picro-Basalt,Intraplate / Oceanic crust (< 15 km)
603,Kilauea,United States,Shield,2018 CE,Hawaiian Islands,19.42,-155.29,1222.0,Basalt / Picro-Basalt,Intraplate / Oceanic crust (< 15 km)
604,Mauna Loa,United States,Shield,1984 CE,Hawaiian Islands,19.48,-155.61,4170.0,Basalt / Picro-Basalt,Intraplate / Oceanic crust (< 15 km)
605,Mauna Kea,United States,Shield,2460 BCE,Hawaiian Islands,19.82,-155.47,4205.0,Basalt / Picro-Basalt,Intraplate / Oceanic crust (< 15 km)
606,Hualalai,United States,Shield,1801 CE,Hawaiian Islands,19.69,-155.87,2523.0,Basalt / Picro-Basalt,Intraplate / Oceanic crust (< 15 km)
607,Haleakala,United States,Shield,1750 CE,Hawaiian Islands,20.71,-156.25,3055.0,Basalt / Picro-Basalt,Intraplate / Oceanic crust (< 15 km)
608,Teahitia,France,Submarine,1985 CE,Pacific Ocean (central),-17.56,-148.82,-1743.0,Trachybasalt / Tephrite Basanite,Intraplate / Oceanic crust (< 15 km)
609,Rocard,France,Submarine,1972 CE,Pacific Ocean (central),-17.66,-148.59,-2515.0,Trachyte / Trachydacite,Intraplate / Oceanic crust (< 15 km)
610,Moua Pihaa,France,Submarine,1970 CE,Pacific Ocean (central),-18.33,-148.53,-312.0,Trachybasalt / Tephrite Basanite,Intraplate / Oceanic crust (< 15 km)
611,Adams Seamount,Undersea Features,Submarine,50 BCE,Pacific Ocean (central),-25.37,-129.27,-39.0,Basalt / Picro-Basalt,Intraplate / Oceanic crust (< 15 km)
612,Macdonald,Undersea Features,Submarine,1989 CE,Pacific Ocean (central),-28.98,-140.25,-39.0,Basalt / Picro-Basalt,Intraplate / Oceanic crust (< 15 km)
613,Northern EPR at 17Â°N,Undersea Features,Submarine,50 BCE,Pacific Ocean (eastern),16.55,-105.32,-2700.0,Basalt / Picro-Basalt,Rift zone / Oceanic crust (< 15 km)
614,Northern EPR at 16Â°N,Undersea Features,Submarine,50 BCE,Pacific Ocean (eastern),15.83,-105.43,-2300.0,Basalt / Picro-Basalt,Rift zone / Oceanic crust (< 15 km)
615,Northern EPR at 10.7Â°N,Undersea Features,Submarine,2003 CE,Pacific Ocean (eastern),10.73,-103.58,-2900.0,Basalt / Picro-Basalt,Intraplate / Oceanic crust (< 15 km)
616,Northern EPR at 9.8Â°N,Undersea Features,Submarine,2006 CE,Pacific Ocean (eastern),9.83,-104.3,-2500.0,Basalt / Picro-Basalt,Rift zone / Oceanic crust (< 15 km)
617,Galapagos Rift,Undersea Features,Submarine,1996 CE,Pacific Ocean (eastern),0.79,-86.15,-2430.0,Basalt / Picro-Basalt,Rift zone / Oceanic crust (< 15 km)
618,Southern EPR at 8Â°S,Undersea Features,Submarine,1969 CE,Pacific Ocean (eastern),-8.27,-107.95,-2800.0,Basalt / Picro-Basalt,Rift zone / Oceanic crust (< 15 km)
619,Southern EPR-Segment K,Undersea Features,Submarine,1990 CE,Pacific Ocean (eastern),-17.44,-113.21,-2566.0,Basalt / Picro-Basalt,Rift zone / Oceanic crust (< 15 km)
620,Southern EPR-Segment J,Undersea Features,Submarine,1890 CE,Pacific Ocean (eastern),-18.18,-113.35,-2650.0,Basalt / Picro-Basalt,Rift zone / Oceanic crust (< 15 km)
621,Southern EPR-Segment I,Undersea Features,Submarine,1915 CE,Pacific Ocean (eastern),-18.53,-113.42,-2600.0,Basalt / Picro-Basalt,Rift zone / Oceanic crust (< 15 km)
622,Barcena,Mexico,Pyroclastic cone(s),1953 CE,Mexico,19.3,-110.82,332.0,Trachyte / Trachydacite,Rift zone / Oceanic crust (< 15 km)
623,Socorro,Mexico,Shield,1994 CE,Mexico,18.78,-110.95,1050.0,Trachyte / Trachydacite,Rift zone / Oceanic crust (< 15 km)
624,Ceboruco,Mexico,Stratovolcano,1875 CE,Mexico,21.13,-104.51,2280.0,Andesite / Basaltic Andesite,Subduction zone / Continental crust (>25 km)
625,Colima,Mexico,Stratovolcano(es),2019 CE,Mexico,19.51,-103.62,3850.0,Andesite / Basaltic Andesite,Subduction zone / Continental crust (>25 km)
626,Michoacan-Guanajuato,Mexico,Pyroclastic cone(s),1952 CE,Mexico,19.85,-101.75,3860.0,Andesite / Basaltic Andesite,Subduction zone / Continental crust (>25 km)
627,Zitacuaro-Valle de Bravo,Mexico,Caldera,3050 BCE,Mexico,19.4,-100.25,3500.0,Dacite,Subduction zone / Continental crust (>25 km)
628,Jocotitlan,Mexico,Stratovolcano,1270 CE,Mexico,19.73,-99.76,3900.0,Dacite,Subduction zone / Continental crust (>25 km)
629,"Toluca, Nevado de",Mexico,Stratovolcano,1350 BCE,Mexico,19.11,-99.76,4680.0,Andesite / Basaltic Andesite,Subduction zone / Continental crust (>25 km)
630,Chichinautzin,Mexico,Volcanic field,400 CE,Mexico,19.08,-99.13,3930.0,Andesite / Basaltic Andesite,Subduction zone / Continental crust (>25 km)
631,Popocatepetl,Mexico,Stratovolcano(es),2020 CE,Mexico,19.02,-98.62,5393.0,Andesite / Basaltic Andesite,Subduction zone / Continental crust (>25 km)
632,"Malinche, La",Mexico,Stratovolcano,1170 BCE,Mexico,19.23,-98.03,4461.0,Andesite / Basaltic Andesite,Subduction zone / Continental crust (>25 km)
633,"Humeros, Los",Mexico,Caldera(s),4470 BCE,Mexico,19.68,-97.45,3150.0,Rhyolite,Subduction zone / Continental crust (>25 km)
634,Naolinco Volcanic Field,Mexico,Pyroclastic cone(s),1200 BCE,Mexico,19.67,-96.75,2000.0,Basalt / Picro-Basalt,Subduction zone / Continental crust (>25 km)
635,Cofre de Perote,Mexico,Shield(s),1150 CE,Mexico,19.49,-97.15,4282.0,Andesite / Basaltic Andesite,Subduction zone / Continental crust (>25 km)
636,"Cumbres,  Las",Mexico,Stratovolcano,3920 BCE,Mexico,19.15,-97.27,3940.0,Andesite / Basaltic Andesite,Subduction zone / Continental crust (>25 km)
637,"Orizaba, Pico de",Mexico,Stratovolcano,1846 CE,Mexico,19.03,-97.27,5564.0,Andesite / Basaltic Andesite,Subduction zone / Continental crust (>25 km)
638,San Martin,Mexico,Shield,1796 CE,Mexico,18.57,-95.2,1650.0,Trachybasalt / Tephrite Basanite,Subduction zone / Continental crust (>25 km)
639,"Chichon, El",Mexico,Lava dome(s),1982 CE,Mexico,17.36,-93.23,1150.0,Trachyandesite / Basaltic Trachyandesite,Subduction zone / Continental crust (>25 km)
640,Tacana,Mexico-Guatemala,Stratovolcano,1986 CE,Mexico,15.13,-92.11,4064.0,Andesite / Basaltic Andesite,Subduction zone / Continental crust (>25 km)
641,Santa Maria,Guatemala,Stratovolcano,2020 CE,Guatemala,14.76,-91.55,3745.0,Dacite,Subduction zone / Continental crust (>25 km)
642,Almolonga,Guatemala,Stratovolcano,1818 CE,Guatemala,14.8,-91.52,3173.0,Dacite,Subduction zone / Continental crust (>25 km)
643,Atitlan,Guatemala,Stratovolcano(es),1853 CE,Guatemala,14.58,-91.19,3535.0,Andesite / Basaltic Andesite,Subduction zone / Continental crust (>25 km)
644,Acatenango,Guatemala,Stratovolcano(es),1972 CE,Guatemala,14.5,-90.88,3976.0,Andesite / Basaltic Andesite,Subduction zone / Continental crust (>25 km)
645,Fuego,Guatemala,Stratovolcano(es),2020 CE,Guatemala,14.47,-90.88,3763.0,Basalt / Picro-Basalt,Subduction zone / Continental crust (>25 km)
646,Pacaya,Guatemala,Complex,2020 CE,Guatemala,14.38,-90.6,2569.0,Basalt / Picro-Basalt,Subduction zone / Continental crust (>25 km)
647,Tecuamburro,Guatemala,Stratovolcano,960 BCE,Guatemala,14.16,-90.41,1845.0,Andesite / Basaltic Andesite,Subduction zone / Continental crust (>25 km)
648,Santa Ana,El Salvador,Stratovolcano,2005 CE,El Salvador and Honduras,13.85,-89.63,2381.0,Andesite / Basaltic Andesite,Subduction zone / Continental crust (>25 km)
649,Izalco,El Salvador,Stratovolcano,1966 CE,El Salvador and Honduras,13.81,-89.63,1950.0,Andesite / Basaltic Andesite,Subduction zone / Continental crust (>25 km)
650,San Salvador,El Salvador,Stratovolcano,1917 CE,El Salvador and Honduras,13.73,-89.29,1893.0,Andesite / Basaltic Andesite,Subduction zone / Continental crust (>25 km)
651,Ilopango,El Salvador,Caldera,1880 CE,El Salvador and Honduras,13.67,-89.05,450.0,Dacite,Subduction zone / Continental crust (>25 km)
652,San Miguel,El Salvador,Stratovolcano,2020 CE,El Salvador and Honduras,13.43,-88.27,2130.0,Andesite / Basaltic Andesite,Subduction zone / Continental crust (>25 km)
653,Cosiguina,Nicaragua,Stratovolcano,1859 CE,Nicaragua,12.98,-87.57,872.0,Andesite / Basaltic Andesite,Subduction zone / Continental crust (>25 km)
654,San Cristobal,Nicaragua,Stratovolcano,2019 CE,Nicaragua,12.7,-87.0,1745.0,Basalt / Picro-Basalt,Subduction zone / Continental crust (>25 km)
655,Telica,Nicaragua,Stratovolcano(es),2018 CE,Nicaragua,12.61,-86.84,1036.0,Basalt / Picro-Basalt,Subduction zone / Continental crust (>25 km)
656,"Negro, Cerro",Nicaragua,Pyroclastic cone(s),1999 CE,Nicaragua,12.51,-86.7,728.0,Basalt / Picro-Basalt,Subduction zone / Continental crust (>25 km)
657,"Pilas, Las",Nicaragua,Complex,1954 CE,Nicaragua,12.5,-86.69,1088.0,Andesite / Basaltic Andesite,Subduction zone / Continental crust (>25 km)
658,Momotombo,Nicaragua,Stratovolcano,2016 CE,Nicaragua,12.42,-86.54,1270.0,Basalt / Picro-Basalt,Subduction zone / Continental crust (>25 km)
659,Apoyeque,Nicaragua,Pyroclastic shield,50 BCE,Nicaragua,12.24,-86.34,518.0,Dacite,Subduction zone / Continental crust (>25 km)
660,Nejapa-Miraflores,Nicaragua,Fissure vent(s),1060 CE,Nicaragua,12.12,-86.32,360.0,Basalt / Picro-Basalt,Subduction zone / Continental crust (>25 km)
661,Masaya,Nicaragua,Caldera,2020 CE,Nicaragua,11.99,-86.17,594.0,Basalt / Picro-Basalt,Subduction zone / Continental crust (>25 km)
662,Concepcion,Nicaragua,Stratovolcano,2011 CE,Nicaragua,11.54,-85.62,1700.0,Andesite / Basaltic Andesite,Subduction zone / Continental crust (>25 km)
663,Rincon de la Vieja,Costa Rica,Complex,2020 CE,Costa Rica,10.83,-85.32,1916.0,Andesite / Basaltic Andesite,Subduction zone / Continental crust (>25 km)
664,Miravalles,Costa Rica,Stratovolcano,1946 CE,Costa Rica,10.75,-85.15,2028.0,Andesite / Basaltic Andesite,Subduction zone / Continental crust (>25 km)
665,Arenal,Costa Rica,Stratovolcano,2010 CE,Costa Rica,10.46,-84.7,1670.0,Andesite / Basaltic Andesite,Subduction zone / Continental crust (>25 km)
666,Poas,Costa Rica,Stratovolcano,2019 CE,Costa Rica,10.2,-84.23,2708.0,Andesite / Basaltic Andesite,Subduction zone / Continental crust (>25 km)
667,Barva,Costa Rica,Complex,6050 BCE,Costa Rica,10.14,-84.1,2906.0,Andesite / Basaltic Andesite,Subduction zone / Continental crust (>25 km)
668,Irazu,Costa Rica,Stratovolcano,1994 CE,Costa Rica,9.98,-83.85,3432.0,Andesite / Basaltic Andesite,Subduction zone / Continental crust (>25 km)
669,Turrialba,Costa Rica,Stratovolcano,2019 CE,Costa Rica,10.03,-83.77,3340.0,Andesite / Basaltic Andesite,Subduction zone / Continental crust (>25 km)
670,Baru,Panama,Stratovolcano,1550 CE,Panama,8.81,-82.54,3474.0,Andesite / Basaltic Andesite,Subduction zone / Continental crust (>25 km)
671,Romeral,Colombia,Stratovolcano,5390 BCE,Colombia,5.2,-75.36,3769.0,Andesite / Basaltic Andesite,Subduction zone / Continental crust (>25 km)
672,"Bravo, Cerro",Colombia,Stratovolcano,1720 CE,Colombia,5.09,-75.29,3985.0,Dacite,Subduction zone / Continental crust (>25 km)
673,"Ruiz, Nevado del",Colombia,Stratovolcano,2020 CE,Colombia,4.89,-75.32,5279.0,Andesite / Basaltic Andesite,Subduction zone / Continental crust (>25 km)
674,Santa Isabel,Colombia,Shield,850 BCE,Colombia,4.82,-75.37,4944.0,Andesite / Basaltic Andesite,Subduction zone / Continental crust (>25 km)
675,"Tolima, Nevado del",Colombia,Stratovolcano,1943 CE,Colombia,4.66,-75.33,5215.0,Andesite / Basaltic Andesite,Subduction zone / Continental crust (>25 km)
676,Machin,Colombia,Stratovolcano,1180 CE,Colombia,4.49,-75.39,2749.0,Dacite,Subduction zone / Continental crust (>25 km)
677,"Huila, Nevado del",Colombia,Stratovolcano,2012 CE,Colombia,2.93,-76.03,5364.0,Andesite / Basaltic Andesite,Subduction zone / Continental crust (>25 km)
678,Purace,Colombia,Stratovolcano(es),1977 CE,Colombia,2.32,-76.4,4650.0,Andesite / Basaltic Andesite,Subduction zone / Continental crust (>25 km)
679,Dona Juana,Colombia,Stratovolcano,1906 CE,Colombia,1.5,-76.94,4137.0,Andesite / Basaltic Andesite,Subduction zone / Continental crust (>25 km)
680,Galeras,Colombia,Complex,2014 CE,Colombia,1.22,-77.37,4276.0,Andesite / Basaltic Andesite,Subduction zone / Continental crust (>25 km)
681,Azufral,Colombia,Stratovolcano,930 BCE,Colombia,1.08,-77.68,4070.0,Dacite,Subduction zone / Continental crust (>25 km)
682,Cumbal,Colombia,Stratovolcano,1926 CE,Colombia,0.95,-77.87,4764.0,Andesite / Basaltic Andesite,Subduction zone / Continental crust (>25 km)
683,Chiles-Cerro Negro,Colombia-Ecuador,Stratovolcano,1936 CE,Colombia,0.82,-77.94,4698.0,Dacite,Subduction zone / Continental crust (>25 km)
684,Soche,Ecuador,Stratovolcano,6650 BCE,Ecuador,0.55,-77.58,3955.0,Dacite,Subduction zone / Continental crust (>25 km)
685,Chachimbiro,Ecuador,Stratovolcano,3740 BCE,Ecuador,0.47,-78.29,4106.0,Dacite,Subduction zone / Continental crust (>25 km)
686,Cuicocha,Ecuador,Caldera,650 CE,Ecuador,0.31,-78.36,3246.0,Dacite,Subduction zone / Continental crust (>25 km)
687,Imbabura,Ecuador,Compound,5550 BCE,Ecuador,0.26,-78.18,4609.0,Andesite / Basaltic Andesite,Subduction zone / Continental crust (>25 km)
688,Cayambe,Ecuador,Compound,1786 CE,Ecuador,0.03,-77.99,5790.0,Andesite / Basaltic Andesite,Subduction zone / Continental crust (>25 km)
689,Reventador,Ecuador,Stratovolcano,2020 CE,Ecuador,-0.08,-77.66,3562.0,Andesite / Basaltic Andesite,Subduction zone / Continental crust (>25 km)
690,Pululahua,Ecuador,Caldera,290 CE,Ecuador,0.04,-78.46,3356.0,Dacite,Subduction zone / Continental crust (>25 km)
691,Guagua Pichincha,Ecuador,Stratovolcano,2002 CE,Ecuador,-0.17,-78.6,4784.0,Andesite / Basaltic Andesite,Subduction zone / Continental crust (>25 km)
692,Atacazo,Ecuador,Stratovolcano,320 BCE,Ecuador,-0.35,-78.62,4463.0,Andesite / Basaltic Andesite,Subduction zone / Continental crust (>25 km)
693,Chacana,Ecuador,Caldera,1773 CE,Ecuador,-0.38,-78.25,4643.0,Rhyolite,Subduction zone / Continental crust (>25 km)
694,Antisana,Ecuador,Stratovolcano,1802 CE,Ecuador,-0.48,-78.14,5753.0,Andesite / Basaltic Andesite,Subduction zone / Continental crust (>25 km)
695,Aliso,Ecuador,Stratovolcano,2450 BCE,Ecuador,-0.53,-78.0,4267.0,Andesite / Basaltic Andesite,Subduction zone / Continental crust (>25 km)
696,Sumaco,Ecuador,Stratovolcano,1895 CE,Ecuador,-0.54,-77.63,3990.0,Trachybasalt / Tephrite Basanite,Subduction zone / Continental crust (>25 km)
697,Cotopaxi,Ecuador,Stratovolcano,2016 CE,Ecuador,-0.68,-78.44,5911.0,Andesite / Basaltic Andesite,Subduction zone / Continental crust (>25 km)
698,Quilotoa,Ecuador,Caldera,1280 CE,Ecuador,-0.85,-78.9,3914.0,Dacite,Subduction zone / Continental crust (>25 km)
699,Chimborazo,Ecuador,Stratovolcano,550 CE,Ecuador,-1.46,-78.82,6310.0,Andesite / Basaltic Andesite,Subduction zone / Continental crust (>25 km)
700,Tungurahua,Ecuador,Stratovolcano,2016 CE,Ecuador,-1.47,-78.44,5023.0,Andesite / Basaltic Andesite,Subduction zone / Continental crust (>25 km)
701,Sangay,Ecuador,Stratovolcano,2020 CE,Ecuador,-2.01,-78.34,5286.0,Andesite / Basaltic Andesite,Subduction zone / Continental crust (>25 km)
702,Fernandina,Ecuador,Shield,2020 CE,Galapagos Islands,-0.37,-91.55,1476.0,Basalt / Picro-Basalt,Rift zone / Oceanic crust (< 15 km)
703,Ecuador,Ecuador,Shield,1150 CE,Galapagos Islands,-0.02,-91.55,790.0,Basalt / Picro-Basalt,Rift zone / Oceanic crust (< 15 km)
704,Wolf,Ecuador,Shield,2015 CE,Galapagos Islands,0.02,-91.35,1710.0,Basalt / Picro-Basalt,Rift zone / Oceanic crust (< 15 km)
705,Darwin,Ecuador,Shield,1813 CE,Galapagos Islands,-0.18,-91.28,1330.0,Basalt / Picro-Basalt,Rift zone / Oceanic crust (< 15 km)
706,Alcedo,Ecuador,Shield,1993 CE,Galapagos Islands,-0.43,-91.12,1130.0,Basalt / Picro-Basalt,Rift zone / Oceanic crust (< 15 km)
707,"Negra, Sierra",Ecuador,Shield,2018 CE,Galapagos Islands,-0.83,-91.17,1124.0,Basalt / Picro-Basalt,Rift zone / Oceanic crust (< 15 km)
708,"Azul, Cerro",Ecuador,Shield,2008 CE,Galapagos Islands,-0.92,-91.41,1640.0,Basalt / Picro-Basalt,Rift zone / Oceanic crust (< 15 km)
709,Pinta,Ecuador,Shield,1928 CE,Galapagos Islands,0.58,-90.75,780.0,Basalt / Picro-Basalt,Rift zone / Oceanic crust (< 15 km)
710,Marchena,Ecuador,Shield,1991 CE,Galapagos Islands,0.33,-90.47,343.0,Basalt / Picro-Basalt,Rift zone / Oceanic crust (< 15 km)
711,Santiago,Ecuador,Shield,1906 CE,Galapagos Islands,-0.22,-90.77,920.0,Basalt / Picro-Basalt,Rift zone / Oceanic crust (< 15 km)
712,Quimsachata,Peru,Lava dome,4450 BCE,Peru,-14.18,-71.35,3693.0,Rhyolite,Subduction zone / Continental crust (>25 km)
713,Andahua-Orcopampa,Peru,Pyroclastic cone(s),1490 CE,Peru,-15.42,-72.33,4713.0,Trachyandesite / Basaltic Trachyandesite,Subduction zone / Continental crust (>25 km)
714,Huambo,Peru,Volcanic field,700 BCE,Peru,-15.83,-72.13,4550.0,Trachyandesite / Basaltic Trachyandesite,Subduction zone / Continental crust (>25 km)
715,Sabancaya,Peru,Stratovolcano(es),2020 CE,Peru,-15.79,-71.86,5960.0,Andesite / Basaltic Andesite,Subduction zone / Continental crust (>25 km)
716,"Misti, El",Peru,Stratovolcano,1985 CE,Peru,-16.29,-71.41,5822.0,Andesite / Basaltic Andesite,Subduction zone / Continental crust (>25 km)
717,Ubinas,Peru,Stratovolcano,2019 CE,Peru,-16.36,-70.9,5672.0,Andesite / Basaltic Andesite,Subduction zone / Continental crust (>25 km)
718,Huaynaputina,Peru,Stratovolcano,1600 CE,Peru,-16.61,-70.85,4850.0,Dacite,Subduction zone / Continental crust (>25 km)
719,Ticsani,Peru,Lava dome(s),1800 CE,Peru,-16.76,-70.6,5408.0,Dacite,Subduction zone / Continental crust (>25 km)
720,Tutupaca,Peru,Stratovolcano(es),1802 CE,Peru,-17.03,-70.37,5801.0,Andesite / Basaltic Andesite,Subduction zone / Continental crust (>25 km)
721,Yucamane,Peru,Stratovolcano(es),1320 BCE,Peru,-17.18,-70.2,5495.0,Andesite / Basaltic Andesite,Subduction zone / Continental crust (>25 km)
722,Taapaca,Chile,Complex,320 BCE,"Northern Chile, Bolivia and Argentina",-18.1,-69.5,5860.0,Dacite,Subduction zone / Continental crust (>25 km)
723,Parinacota,Chile-Bolivia,Stratovolcano,290 CE,"Northern Chile, Bolivia and Argentina",-18.17,-69.14,6336.0,Andesite / Basaltic Andesite,Subduction zone / Continental crust (>25 km)
724,Guallatiri,Chile,Stratovolcano,1960 CE,"Northern Chile, Bolivia and Argentina",-18.42,-69.09,6071.0,Andesite / Basaltic Andesite,Subduction zone / Continental crust (>25 km)
725,Isluga,Chile,Stratovolcano,1913 CE,"Northern Chile, Bolivia and Argentina",-19.15,-68.83,5550.0,Andesite / Basaltic Andesite,Subduction zone / Continental crust (>25 km)
726,Irruputuncu,Chile-Bolivia,Stratovolcano,1995 CE,"Northern Chile, Bolivia and Argentina",-20.73,-68.55,5163.0,Andesite / Basaltic Andesite,Subduction zone / Continental crust (>25 km)
727,San Pedro-San Pablo,Chile,Stratovolcano(es),1960 CE,"Northern Chile, Bolivia and Argentina",-21.89,-68.39,6142.0,Andesite / Basaltic Andesite,Subduction zone / Continental crust (>25 km)
728,Putana,Chile,Stratovolcano,1810 CE,"Northern Chile, Bolivia and Argentina",-22.56,-67.85,5884.0,Dacite,Subduction zone / Continental crust (>25 km)
729,Lascar,Chile,Stratovolcano(es),2017 CE,"Northern Chile, Bolivia and Argentina",-23.37,-67.73,5592.0,Andesite / Basaltic Andesite,Subduction zone / Continental crust (>25 km)
730,Socompa,Chile-Argentina,Stratovolcano,5250 BCE,"Northern Chile, Bolivia and Argentina",-24.4,-68.25,6031.0,Dacite,Subduction zone / Continental crust (>25 km)
731,Llullaillaco,Chile-Argentina,Stratovolcano,1877 CE,"Northern Chile, Bolivia and Argentina",-24.72,-68.53,6739.0,Dacite,Subduction zone / Continental crust (>25 km)
732,"Ojos del Salado, Nevados",Chile-Argentina,Stratovolcano,750 CE,"Northern Chile, Bolivia and Argentina",-27.11,-68.54,6879.0,Dacite,Subduction zone / Continental crust (>25 km)
733,"Blanco, Cerro",Argentina,Caldera,2300 BCE,"Northern Chile, Bolivia and Argentina",-26.79,-67.77,4670.0,Rhyolite,Subduction zone / Continental crust (>25 km)
734,Tupungatito,Chile-Argentina,Stratovolcano,1987 CE,Central Chile and Argentina,-33.43,-69.8,5660.0,Andesite / Basaltic Andesite,Subduction zone / Continental crust (>25 km)
735,San Jose,Chile-Argentina,Stratovolcano(es),1960 CE,Central Chile and Argentina,-33.79,-69.9,6070.0,Andesite / Basaltic Andesite,Subduction zone / Continental crust (>25 km)
736,Maipo,Chile-Argentina,Caldera,1912 CE,Central Chile and Argentina,-34.16,-69.83,5323.0,Trachyandesite / Basaltic Trachyandesite,Subduction zone / Continental crust (>25 km)
737,Tinguiririca,Chile,Stratovolcano,1917 CE,Central Chile and Argentina,-34.81,-70.35,4280.0,Andesite / Basaltic Andesite,Subduction zone / Continental crust (>25 km)
738,Planchon-Peteroa,Chile,Stratovolcano(es),2019 CE,Central Chile and Argentina,-35.22,-70.57,3977.0,Andesite / Basaltic Andesite,Subduction zone / Continental crust (>25 km)
739,Infiernillo,Argentina,Volcanic field,6890 BCE,Central Chile and Argentina,-35.12,-69.9,3007.0,Andesite / Basaltic Andesite,Intraplate / Continental crust (>25 km)
740,Descabezado Grande,Chile,Stratovolcano(es),1933 CE,Central Chile and Argentina,-35.58,-70.75,3953.0,Andesite / Basaltic Andesite,Subduction zone / Continental crust (>25 km)
741,"Azul, Cerro",Chile,Stratovolcano,1967 CE,Central Chile and Argentina,-35.65,-70.76,3788.0,Dacite,Subduction zone / Continental crust (>25 km)
742,"Maule, Laguna del",Chile,Caldera,50 BCE,Central Chile and Argentina,-36.06,-70.49,2162.0,Andesite / Basaltic Andesite,Subduction zone / Continental crust (>25 km)
743,"Longavi, Nevado de",Chile,Stratovolcano,4890 BCE,Central Chile and Argentina,-36.19,-71.16,3242.0,Andesite / Basaltic Andesite,Subduction zone / Continental crust (>25 km)
744,Payun Matru,Argentina,Shield,5050 BCE,Central Chile and Argentina,-36.42,-69.24,3715.0,Trachybasalt / Tephrite Basanite,Subduction zone / Continental crust (>25 km)
745,"Chillan, Nevados de",Chile,Stratovolcano,2020 CE,Central Chile and Argentina,-36.87,-71.38,3180.0,Andesite / Basaltic Andesite,Subduction zone / Continental crust (>25 km)
746,Tromen,Argentina,Stratovolcano(es),1822 CE,Central Chile and Argentina,-37.14,-70.03,4114.0,Andesite / Basaltic Andesite,Subduction zone / Continental crust (>25 km)
747,Antuco,Chile,Stratovolcano,1869 CE,Central Chile and Argentina,-37.41,-71.35,2979.0,Basalt / Picro-Basalt,Subduction zone / Continental crust (>25 km)
748,Copahue,Chile-Argentina,Stratovolcano,2019 CE,Central Chile and Argentina,-37.86,-71.18,2953.0,Trachybasalt / Tephrite Basanite,Subduction zone / Continental crust (>25 km)
749,Callaqui,Chile,Stratovolcano,1980 CE,Central Chile and Argentina,-37.92,-71.45,3164.0,Andesite / Basaltic Andesite,Subduction zone / Continental crust (>25 km)
750,Tolhuaca,Chile,Stratovolcano,4000 BCE,Central Chile and Argentina,-38.31,-71.65,2739.0,Andesite / Basaltic Andesite,Subduction zone / Continental crust (>25 km)
751,Lonquimay,Chile,Stratovolcano,1990 CE,Central Chile and Argentina,-38.38,-71.59,2832.0,Andesite / Basaltic Andesite,Subduction zone / Continental crust (>25 km)
752,Llaima,Chile,Stratovolcano,2009 CE,Central Chile and Argentina,-38.69,-71.73,3125.0,Basalt / Picro-Basalt,Subduction zone / Continental crust (>25 km)
753,Sollipulli,Chile,Caldera,1240 CE,Central Chile and Argentina,-38.97,-71.52,2282.0,Andesite / Basaltic Andesite,Subduction zone / Continental crust (>25 km)
754,Caburgua-Huelemolle,Chile,Pyroclastic cone(s),5050 BCE,Central Chile and Argentina,-39.25,-71.75,1652.0,Basalt / Picro-Basalt,Subduction zone / Continental crust (>25 km)
755,Villarrica,Chile,Stratovolcano,2020 CE,Central Chile and Argentina,-39.42,-71.93,2847.0,Basalt / Picro-Basalt,Subduction zone / Continental crust (>25 km)
756,Quetrupillan,Chile,Stratovolcano,255 CE,Central Chile and Argentina,-39.5,-71.72,2360.0,Andesite / Basaltic Andesite,Subduction zone / Continental crust (>25 km)
757,Lanin,Chile-Argentina,Stratovolcano,560 CE,Central Chile and Argentina,-39.64,-71.5,3776.0,Trachyandesite / Basaltic Trachyandesite,Subduction zone / Continental crust (>25 km)
758,Huanquihue Group,Argentina,Stratovolcano(es),1750 CE,Central Chile and Argentina,-39.89,-71.58,2189.0,Basalt / Picro-Basalt,Subduction zone / Continental crust (>25 km)
759,Mocho-Choshuenco,Chile,Stratovolcano(es),1937 CE,Central Chile and Argentina,-39.93,-72.03,2422.0,Andesite / Basaltic Andesite,Subduction zone / Continental crust (>25 km)
760,Carran-Los Venados,Chile,Pyroclastic cone(s),1979 CE,Central Chile and Argentina,-40.35,-72.07,1114.0,Basalt / Picro-Basalt,Subduction zone / Continental crust (>25 km)
761,Puyehue-Cordon Caulle,Chile,Stratovolcano,2012 CE,Central Chile and Argentina,-40.59,-72.12,2236.0,Andesite / Basaltic Andesite,Subduction zone / Continental crust (>25 km)
762,Antillanca Volcanic Complex,Chile,Stratovolcano(es),230 BCE,Central Chile and Argentina,-40.78,-72.15,1979.0,Basalt / Picro-Basalt,Subduction zone / Continental crust (>25 km)
763,Puntiagudo-Cordon Cenizos,Chile,Stratovolcano,1850 CE,Central Chile and Argentina,-40.97,-72.26,2493.0,Andesite / Basaltic Andesite,Subduction zone / Continental crust (>25 km)
764,Osorno,Chile,Stratovolcano,1869 CE,Southern Chile and Argentina,-41.11,-72.5,2659.0,Basalt / Picro-Basalt,Subduction zone / Continental crust (>25 km)
765,Cayutue-La Vigueria,Chile,Pyroclastic cone(s),190 BCE,Southern Chile and Argentina,-41.25,-72.27,506.0,Basalt / Picro-Basalt,Subduction zone / Continental crust (>25 km)
766,Calbuco,Chile,Stratovolcano,2015 CE,Southern Chile and Argentina,-41.33,-72.62,1974.0,Andesite / Basaltic Andesite,Subduction zone / Continental crust (>25 km)
767,Yate,Chile,Stratovolcano,1090 CE,Southern Chile and Argentina,-41.76,-72.4,2187.0,Andesite / Basaltic Andesite,Subduction zone / Continental crust (>25 km)
768,Hornopiren,Chile,Stratovolcano,340 CE,Southern Chile and Argentina,-41.87,-72.43,1572.0,Andesite / Basaltic Andesite,Subduction zone / Continental crust (>25 km)
769,Apagado,Chile,Pyroclastic cone,590 BCE,Southern Chile and Argentina,-41.88,-72.58,1210.0,Basalt / Picro-Basalt,Subduction zone / Continental crust (>25 km)
770,Huequi,Chile,Lava dome(s),1920 CE,Southern Chile and Argentina,-42.38,-72.58,1318.0,Andesite / Basaltic Andesite,Subduction zone / Continental crust (>25 km)
771,Michinmahuida,Chile,Stratovolcano,1835 CE,Southern Chile and Argentina,-42.8,-72.45,2452.0,Andesite / Basaltic Andesite,Subduction zone / Continental crust (>25 km)
772,Chaiten,Chile,Caldera,2011 CE,Southern Chile and Argentina,-42.83,-72.65,1122.0,Rhyolite,Subduction zone / Continental crust (>25 km)
773,Yanteles,Chile,Stratovolcano(es),6650 BCE,Southern Chile and Argentina,-43.5,-72.81,2049.0,Andesite / Basaltic Andesite,Subduction zone / Continental crust (>25 km)
774,Corcovado,Chile,Stratovolcano,4920 BCE,Southern Chile and Argentina,-43.19,-72.79,1826.0,Andesite / Basaltic Andesite,Subduction zone / Continental crust (>25 km)
775,Melimoyu,Chile,Stratovolcano,200 CE,Southern Chile and Argentina,-44.08,-72.88,2400.0,Andesite / Basaltic Andesite,Subduction zone / Continental crust (>25 km)
776,Mentolat,Chile,Stratovolcano,1710 CE,Southern Chile and Argentina,-44.7,-73.08,1660.0,Andesite / Basaltic Andesite,Subduction zone / Continental crust (>25 km)
777,Maca,Chile,Stratovolcano,1560 CE,Southern Chile and Argentina,-45.1,-73.17,2960.0,Basalt / Picro-Basalt,Subduction zone / Continental crust (>25 km)
778,"Hudson, Cerro",Chile,Stratovolcano,2011 CE,Southern Chile and Argentina,-45.9,-72.97,1905.0,Basalt / Picro-Basalt,Subduction zone / Continental crust (>25 km)
779,Arenales,Chile,Stratovolcano,1979 CE,Southern Chile and Argentina,-47.2,-73.48,3437.0,No Data (checked),Subduction zone / Continental crust (>25 km)
780,Lautaro,Chile,Stratovolcano,1979 CE,Southern Chile and Argentina,-49.02,-73.5,3542.0,Dacite,Subduction zone / Continental crust (>25 km)
781,Aguilera,Chile,Stratovolcano,1250 BCE,Southern Chile and Argentina,-50.33,-73.75,2546.0,Dacite,Subduction zone / Continental crust (>25 km)
782,Reclus,Chile,Pyroclastic cone,1908 CE,Southern Chile and Argentina,-50.96,-73.59,1000.0,Dacite,Subduction zone / Continental crust (>25 km)
783,"Burney, Monte",Chile,Stratovolcano,1910 CE,Southern Chile and Argentina,-52.33,-73.4,1758.0,Andesite / Basaltic Andesite,Subduction zone / Continental crust (>25 km)
784,Pali-Aike Volcanic Field,Chile-Argentina,Pyroclastic cone(s),5550 BCE,Southern Chile and Argentina,-52.08,-69.7,282.0,Basalt / Picro-Basalt,Subduction zone / Continental crust (>25 km)
785,Fueguino,Chile,Lava dome(s),1820 CE,Southern Chile and Argentina,-54.97,-70.26,157.0,Andesite / Basaltic Andesite,Subduction zone / Continental crust (>25 km)
786,Saba,Netherlands,Stratovolcano,1640 CE,West Indies,17.63,-63.23,887.0,Andesite / Basaltic Andesite,Subduction zone / Oceanic crust (< 15 km)
787,"Quill, The",Netherlands,Stratovolcano,250 CE,West Indies,17.48,-62.96,601.0,Andesite / Basaltic Andesite,Subduction zone / Oceanic crust (< 15 km)
788,Liamuiga,Saint Kitts and Nevis,Stratovolcano,160 CE,West Indies,17.37,-62.8,1156.0,Andesite / Basaltic Andesite,Subduction zone / Oceanic crust (< 15 km)
789,Soufriere Hills,United Kingdom,Stratovolcano,2013 CE,West Indies,16.72,-62.18,915.0,Andesite / Basaltic Andesite,Subduction zone / Oceanic crust (< 15 km)
790,Soufriere Guadeloupe,France,Stratovolcano,1977 CE,West Indies,16.04,-61.66,1467.0,Andesite / Basaltic Andesite,Subduction zone / Oceanic crust (< 15 km)
791,"Trois Pitons, Morne",Dominica,Complex,920 CE,West Indies,15.37,-61.33,1387.0,Andesite / Basaltic Andesite,Subduction zone / Oceanic crust (< 15 km)
792,"Watt, Morne",Dominica,Stratovolcano(es),1997 CE,West Indies,15.31,-61.31,1224.0,Andesite / Basaltic Andesite,Subduction zone / Oceanic crust (< 15 km)
793,"Plat Pays, Morne",Dominica,Stratovolcano,1270 CE,West Indies,15.26,-61.34,940.0,Dacite,Subduction zone / Oceanic crust (< 15 km)
794,Pelee,France,Stratovolcano,1932 CE,West Indies,14.81,-61.17,1394.0,Andesite / Basaltic Andesite,Subduction zone / Oceanic crust (< 15 km)
795,Qualibou,Saint Lucia,Caldera,1766 CE,West Indies,13.83,-61.05,777.0,Andesite / Basaltic Andesite,Subduction zone / Oceanic crust (< 15 km)
796,Soufriere St. Vincent,Saint Vincent and the Grenadines,Stratovolcano,1979 CE,West Indies,13.33,-61.18,1220.0,Andesite / Basaltic Andesite,Subduction zone / Oceanic crust (< 15 km)
797,Kick 'em Jenny,Grenada,Submarine,2017 CE,West Indies,12.3,-61.64,-185.0,Basalt / Picro-Basalt,Subduction zone / Oceanic crust (< 15 km)
798,Ljosufjoll,Iceland,Fissure vent(s),960 CE,Iceland (western),64.9,-22.48,1063.0,Basalt / Picro-Basalt,Rift zone / Oceanic crust (< 15 km)
799,Reykjanes,Iceland,Crater rows,1831 CE,Iceland (southwestern),63.85,-22.57,140.0,Basalt / Picro-Basalt,Rift zone / Oceanic crust (< 15 km)
800,Krysuvik,Iceland,Crater rows,1340 CE,Iceland (southwestern),63.88,-22.08,360.0,Basalt / Picro-Basalt,Rift zone / Oceanic crust (< 15 km)
801,Brennisteinsfjoll,Iceland,Crater rows,1341 CE,Iceland (southwestern),63.93,-21.78,610.0,Basalt / Picro-Basalt,Rift zone / Oceanic crust (< 15 km)
802,Hengill,Iceland,Crater rows,150 CE,Iceland (southwestern),64.08,-21.42,803.0,Basalt / Picro-Basalt,Rift zone / Oceanic crust (< 15 km)
803,Grimsnes,Iceland,Crater rows,3500 BCE,Iceland (southwestern),64.05,-20.88,200.0,Basalt / Picro-Basalt,Rift zone / Oceanic crust (< 15 km)
804,Prestahnukur,Iceland,Subglacial,3350 BCE,Iceland (southwestern),64.58,-20.67,1385.0,Basalt / Picro-Basalt,Rift zone / Oceanic crust (< 15 km)
805,Langjokull,Iceland,Subglacial,950 CE,Iceland (southwestern),64.85,-19.7,1100.0,Basalt / Picro-Basalt,Rift zone / Oceanic crust (< 15 km)
806,Vestmannaeyjar,Iceland,Submarine,1973 CE,Iceland (southern),63.42,-20.27,283.0,Basalt / Picro-Basalt,Rift zone / Oceanic crust (< 15 km)
807,Eyjafjallajokull,Iceland,Stratovolcano,2010 CE,Iceland (southern),63.63,-19.63,1651.0,Basalt / Picro-Basalt,Rift zone / Oceanic crust (< 15 km)
808,Katla,Iceland,Subglacial,1918 CE,Iceland (southern),63.63,-19.08,1490.0,Basalt / Picro-Basalt,Rift zone / Oceanic crust (< 15 km)
809,Torfajokull,Iceland,Stratovolcano,1477 CE,Iceland (southern),63.89,-19.12,1280.0,Rhyolite,Rift zone / Oceanic crust (< 15 km)
810,Hekla,Iceland,Stratovolcano,2000 CE,Iceland (southern),63.98,-19.67,1490.0,Andesite / Basaltic Andesite,Rift zone / Oceanic crust (< 15 km)
811,Grimsvotn,Iceland,Caldera,2011 CE,Iceland (northeastern),64.42,-17.32,1719.0,Basalt / Picro-Basalt,Rift zone / Oceanic crust (< 15 km)
812,Bardarbunga,Iceland,Stratovolcano,2015 CE,Iceland (northeastern),64.63,-17.52,2000.0,Basalt / Picro-Basalt,Rift zone / Oceanic crust (< 15 km)
813,Kverkfjoll,Iceland,Stratovolcano,1968 CE,Iceland (northeastern),64.65,-16.65,1930.0,Basalt / Picro-Basalt,Rift zone / Oceanic crust (< 15 km)
814,Askja,Iceland,Stratovolcano,1961 CE,Iceland (northeastern),65.03,-16.78,1080.0,Basalt / Picro-Basalt,Rift zone / Oceanic crust (< 15 km)
815,Fremrinamar,Iceland,Stratovolcano,1200 BCE,Iceland (northeastern),65.42,-16.67,970.0,Basalt / Picro-Basalt,Rift zone / Oceanic crust (< 15 km)
816,Krafla,Iceland,Caldera,1984 CE,Iceland (northeastern),65.72,-16.73,800.0,Basalt / Picro-Basalt,Rift zone / Oceanic crust (< 15 km)
817,Theistareykir,Iceland,Shield,900 BCE,Iceland (northeastern),65.83,-17.17,540.0,Basalt / Picro-Basalt,Rift zone / Oceanic crust (< 15 km)
818,Tjornes Fracture Zone,Iceland,Submarine,1868 CE,Iceland (northeastern),66.31,-17.12,-75.0,Basalt / Picro-Basalt,Rift zone / Oceanic crust (< 15 km)
819,Oraefajokull,Iceland,Stratovolcano,1728 CE,Iceland (southeastern),64.05,-16.63,2010.0,Basalt / Picro-Basalt,Rift zone / Oceanic crust (< 15 km)
820,Kolbeinsey Ridge,Iceland,Submarine,1755 CE,North of Iceland,66.67,-18.5,5.0,Basalt / Picro-Basalt,Rift zone / Oceanic crust (< 15 km)
821,Jan Mayen,Norway,Stratovolcano,1985 CE,Atlantic Ocean (Jan Mayen),71.08,-8.16,2197.0,Basalt / Picro-Basalt,Rift zone / Oceanic crust (< 15 km)
822,East Gakkel Ridge at 85Â°E,Undersea Features,Submarine,1999 CE,Arctic Ocean,85.61,85.25,-3800.0,No Data (checked),Rift zone / Oceanic crust (< 15 km)
823,Pico Fracture Zone,Undersea Features,Submarine,1865 CE,Atlantic Ocean (northern),38.75,-38.08,-4200.0,No Data (checked),Intraplate / Oceanic crust (< 15 km)
824,Flores,Portugal,Stratovolcano(es),950 BCE,Azores,39.46,-31.22,914.0,Basalt / Picro-Basalt,Intraplate / Continental crust (>25 km)
825,Fayal,Portugal,Stratovolcano,1958 CE,Azores,38.6,-28.73,1043.0,Andesite / Basaltic Andesite,Rift zone / Oceanic crust (< 15 km)
826,Pico,Portugal,Stratovolcano,1720 CE,Azores,38.47,-28.4,2351.0,Basalt / Picro-Basalt,Rift zone / Oceanic crust (< 15 km)
827,San Jorge,Portugal,Fissure vent,1907 CE,Azores,38.65,-28.08,1053.0,Basalt / Picro-Basalt,Rift zone / Oceanic crust (< 15 km)
828,Graciosa,Portugal,Stratovolcano,1950 BCE,Azores,39.02,-27.97,402.0,Basalt / Picro-Basalt,Rift zone / Oceanic crust (< 15 km)
829,Terceira,Portugal,Stratovolcano(es),2000 CE,Azores,38.73,-27.32,1023.0,Basalt / Picro-Basalt,Rift zone / Oceanic crust (< 15 km)
830,Don Joao de Castro Bank,Portugal,Submarine,1720 CE,Azores,38.23,-26.63,-13.0,Basalt / Picro-Basalt,Rift zone / Oceanic crust (< 15 km)
831,Sete Cidades,Portugal,Stratovolcano,1880 CE,Azores,37.87,-25.78,856.0,Trachyte / Trachydacite,Rift zone / Oceanic crust (< 15 km)
832,Picos Volcanic System,Portugal,Pyroclastic cone(s),1652 CE,Azores,37.78,-25.67,350.0,Trachybasalt / Tephrite Basanite,Rift zone / Oceanic crust (< 15 km)
833,Agua de Pau,Portugal,Stratovolcano,1564 CE,Azores,37.77,-25.47,947.0,Trachyte / Trachydacite,Rift zone / Oceanic crust (< 15 km)
834,Furnas,Portugal,Stratovolcano,1630 CE,Azores,37.77,-25.32,805.0,Trachyte / Trachydacite,Rift zone / Oceanic crust (< 15 km)
835,Monaco Bank,Portugal,Submarine,1911 CE,Azores,37.6,-25.88,-197.0,No Data (checked),Rift zone / Oceanic crust (< 15 km)
836,Madeira,Portugal,Shield,4500 BCE,Azores,32.73,-16.97,1862.0,Basalt / Picro-Basalt,Intraplate / Oceanic crust (< 15 km)
837,La Palma,Spain,Stratovolcano(es),1971 CE,Canary Islands,28.57,-17.83,2426.0,Trachybasalt / Tephrite Basanite,Intraplate / Oceanic crust (< 15 km)
838,Hierro,Spain,Shield,2012 CE,Canary Islands,27.73,-18.03,1500.0,Trachybasalt / Tephrite Basanite,Intraplate / Oceanic crust (< 15 km)
839,Tenerife,Spain,Stratovolcano,1909 CE,Canary Islands,28.27,-16.64,3715.0,Phonolite,Intraplate / Oceanic crust (< 15 km)
840,Gran Canaria,Spain,Fissure vent(s),40 CE,Canary Islands,28.0,-15.58,1950.0,Trachybasalt / Tephrite Basanite,Intraplate / Intermediate crust (15-25 km)
841,Lanzarote,Spain,Fissure vent(s),1824 CE,Canary Islands,29.03,-13.63,670.0,Basalt / Picro-Basalt,Intraplate / Intermediate crust (15-25 km)
842,Fogo,Cape Verde,Stratovolcano,2015 CE,Cape Verde Islands,14.95,-24.35,2829.0,Foidite,Intraplate / Intermediate crust (15-25 km)
843,Ascension,United Kingdom,Stratovolcano,1508 CE,Atlantic Ocean (central),-7.95,-14.37,858.0,Basalt / Picro-Basalt,Rift zone / Oceanic crust (< 15 km)
844,Walvis Ridge at 33Â°S,Undersea Features,Submarine,2002 CE,Atlantic Ocean (central),-32.96,-5.22,-1200.0,No Data (checked),Intraplate / Oceanic crust (< 15 km)
845,Tristan da Cunha,United Kingdom,Shield,1962 CE,Atlantic Ocean (southern),-37.09,-12.28,2060.0,Trachybasalt / Tephrite Basanite,Rift zone / Oceanic crust (< 15 km)
846,Nightingale Island,United Kingdom,Stratovolcano,2004 CE,Atlantic Ocean (southern),-37.42,-12.48,365.0,Trachyte / Trachydacite,Rift zone / Oceanic crust (< 15 km)
847,Bouvet,Norway,Shield,50 BCE,Atlantic Ocean (southern),-54.41,3.35,741.0,Basalt / Picro-Basalt,Rift zone / Oceanic crust (< 15 km)
848,Buckle Island,Antarctica,Stratovolcano,1899 CE,Antarctica and South Sandwich Islands,-66.78,163.25,1239.0,Trachybasalt / Tephrite Basanite,Rift zone / Oceanic crust (< 15 km)
849,"Pleiades, The",Antarctica,Stratovolcano,1050 BCE,Antarctica and South Sandwich Islands,-72.67,165.5,3040.0,Trachyandesite / Basaltic Trachyandesite,Intraplate / Continental crust (>25 km)
850,Melbourne,Antarctica,Stratovolcano,1892 CE,Antarctica and South Sandwich Islands,-74.35,164.7,2732.0,Trachyte / Trachydacite,Intraplate / Continental crust (>25 km)
851,Erebus,Antarctica,Stratovolcano,2020 CE,Antarctica and South Sandwich Islands,-77.53,167.17,3794.0,Phonolite,Intraplate / Continental crust (>25 km)
852,Berlin,Antarctica,Shield(s),8350 BCE,Antarctica and South Sandwich Islands,-76.05,-136.0,3478.0,Trachyte / Trachydacite,Intraplate / Continental crust (>25 km)
853,Takahe,Antarctica,Shield,5550 BCE,Antarctica and South Sandwich Islands,-76.28,-112.08,3460.0,Trachyte / Trachydacite,Intraplate / Continental crust (>25 km)
854,Hudson Mountains,Antarctica,Stratovolcano(es),210 BCE,Antarctica and South Sandwich Islands,-74.33,-99.42,749.0,Basalt / Picro-Basalt,Intraplate / Continental crust (>25 km)
855,Deception Island,Antarctica,Caldera,1970 CE,Antarctica and South Sandwich Islands,-63.0,-60.65,602.0,Basalt / Picro-Basalt,Intraplate / Continental crust (>25 km)
856,Penguin Island,Antarctica,Stratovolcano,1905 CE,Antarctica and South Sandwich Islands,-62.1,-57.93,180.0,Basalt / Picro-Basalt,Intraplate / Continental crust (>25 km)
857,Southern Thule,United Kingdom,Stratovolcano(es),1975 CE,Antarctica and South Sandwich Islands,-59.44,-27.23,1075.0,Andesite / Basaltic Andesite,Subduction zone / Oceanic crust (< 15 km)
858,Bristol Island,United Kingdom,Stratovolcano,2016 CE,Antarctica and South Sandwich Islands,-59.02,-26.53,1100.0,Basalt / Picro-Basalt,Subduction zone / Oceanic crust (< 15 km)
859,Montagu Island,United Kingdom,Shield,2007 CE,Antarctica and South Sandwich Islands,-58.45,-26.37,1370.0,Basalt / Picro-Basalt,Subduction zone / Oceanic crust (< 15 km)
860,Saunders,United Kingdom,Stratovolcano,2020 CE,Antarctica and South Sandwich Islands,-57.8,-26.48,843.0,Basalt / Picro-Basalt,Subduction zone / Oceanic crust (< 15 km)
861,Candlemas Island,United Kingdom,Stratovolcano,1911 CE,Antarctica and South Sandwich Islands,-57.08,-26.67,550.0,Basalt / Picro-Basalt,Subduction zone / Oceanic crust (< 15 km)
862,Zavodovski,United Kingdom,Stratovolcano,2016 CE,Antarctica and South Sandwich Islands,-56.3,-27.57,551.0,Basalt / Picro-Basalt,Subduction zone / Oceanic crust (< 15 km)
863,Protector Seamounts,United Kingdom,Submarine,1962 CE,Antarctica and South Sandwich Islands,-55.91,-28.17,-55.0,Rhyolite,Subduction zone / Oceanic crust (< 15 km)
